[
  {
    "id": 97002,
    "name": "Marion Lawrence Memorial Library (Gratis Public library)",
    "address": "15 Franklin Street",
    "city": "Gratis",
    "state": "OH",
    "zip": 45330,
    "seo": "GTS",
    "hub": "DAY",
    "routeid": 2005
  },
  {
    "id": 20400,
    "name": "Clark Co. P.L.",
    "address": "201 S. Fountain Ave.",
    "city": "Springfield",
    "state": "OH",
    "zip": 45506,
    "seo": "",
    "hub": "DAY",
    "routeid": 2003
  },
  {
    "id": 36002,
    "name": "Fairfield Local Sch.",
    "address": "11611 St. Rt. 771",
    "city": "Leesburg",
    "state": "OH",
    "zip": 45135,
    "seo": "",
    "hub": "CVG",
    "routeid": 1005
  },
  {
    "id": 13000,
    "name": "Mansfield Richland Co. P.L.",
    "address": "43 West Third St.",
    "city": "Mansfield",
    "state": "OH",
    "zip": 44902,
    "seo": "",
    "hub": "CMH",
    "routeid": 3017
  },
  {
    "id": 90003,
    "name": "Holden Arboretum",
    "address": "9500 Sperry Road",
    "city": "Kirtland",
    "state": "OH",
    "zip": 44094,
    "seo": "",
    "hub": "CLE",
    "routeid": 4015
  },
  {
    "id": 10200,
    "name": "Holgate Community Lib",
    "address": "204 Railway Ave.",
    "city": "Holgate",
    "state": "OH",
    "zip": 43527,
    "seo": "HOL",
    "hub": "TOL",
    "routeid": 5003
  },
  {
    "id": 12905,
    "name": "North Adams P.L. [Adams County]",
    "address": "2469 Moores Road",
    "city": "Seaman",
    "state": "OH",
    "zip": 45679,
    "seo": "ACN",
    "hub": "CVG",
    "routeid": 1007
  },
  {
    "id": 8604,
    "name": "Green Springs Branch",
    "address": "217 N. Broadway",
    "city": "Green Springs",
    "state": "OH",
    "zip": 44836,
    "seo": "",
    "hub": "TOL",
    "routeid": 5005
  },
  {
    "id": 4809,
    "name": "Huntington Branch Library",
    "address": "188 Huntsman Rd",
    "city": "Chillicothe",
    "state": "OH",
    "zip": 45601,
    "seo": "CHT",
    "hub": "CMH",
    "routeid": 3010
  },
  {
    "id": 18120,
    "name": "North Central Correctional Complex",
    "address": "670 Marion-Williamsport Rd E.",
    "city": "Marion",
    "state": "OH",
    "zip": 43301,
    "seo": "",
    "hub": "CMH",
    "routeid": 3015
  },
  {
    "id": 1600,
    "name": "Barberton Public Library",
    "address": "602 W. Park Ave.",
    "city": "Barberton",
    "state": "OH",
    "zip": 44203,
    "seo": "",
    "hub": "CLE",
    "routeid": 4007
  },
  {
    "id": 23500,
    "name": "Hurt/Battelle Memorial Library",
    "address": "270 Lilly Chapel Rd",
    "city": "West Jefferson",
    "state": "OH",
    "zip": 43162,
    "seo": "",
    "hub": "CMH",
    "routeid": 3014
  },
  {
    "id": 7704,
    "name": "Elyria P. L.",
    "address": "1219 Taylor Street",
    "city": "Elyria",
    "state": "OH",
    "zip": 44035,
    "seo": "",
    "hub": "CLE",
    "routeid": 4009
  },
  {
    "id": 201,
    "name": "Perry Cook Memorial Library",
    "address": "7406 County Road 242",
    "city": "Mt. Gilead",
    "state": "OH",
    "zip": 43338,
    "seo": "PKM",
    "hub": "CMH",
    "routeid": 3016
  },
  {
    "id": 6300,
    "name": "Dayton Metro Library",
    "address": "215 E. 3rd St.",
    "city": "Dayton",
    "state": "OH",
    "zip": 45402,
    "seo": "",
    "hub": "DAY",
    "routeid": 2005
  },
  {
    "id": 3000,
    "name": "Bradford P. L.",
    "address": "138 E. Main St.",
    "city": "Bradford",
    "state": "OH",
    "zip": 45308,
    "seo": "",
    "hub": "DAY",
    "routeid": 2001
  },
  {
    "id": 6000,
    "name": "J.R. Clarke Public Library",
    "address": "102 East Spring Street",
    "city": "Covington",
    "state": "OH",
    "zip": 45318,
    "seo": "",
    "hub": "DAY",
    "routeid": 2001
  },
  {
    "id": 34595,
    "name": "Jefferson Area HS Library",
    "address": "207 W. Mulberry St.",
    "city": "Jefferson",
    "state": "OH",
    "zip": 44047,
    "seo": "ADF",
    "hub": "CLE",
    "routeid": 4013
  },
  {
    "id": 5600,
    "name": "Columbiana Public Library",
    "address": "332 N. Middle St.",
    "city": "Columbiana",
    "state": "OH",
    "zip": 44408,
    "seo": "",
    "hub": "CLE",
    "routeid": 4002
  },
  {
    "id": 29009,
    "name": "Dally Memorial Library",
    "address": "37252 Mound Street",
    "city": "Sardis",
    "state": "OH",
    "zip": 43946,
    "seo": "MOS",
    "hub": "CMH",
    "routeid": 3006
  },
  {
    "id": 40340,
    "name": "A-Tech",
    "address": "1565 St. Rt. 167",
    "city": "Jefferson",
    "state": "OH",
    "zip": 44047,
    "seo": "ADT",
    "hub": "CLE",
    "routeid": 4013
  },
  {
    "id": 50953,
    "name": "St. John School",
    "address": "7911 Depot Rd.",
    "city": "Ashtabula",
    "state": "OH",
    "zip": 44004,
    "seo": "ADS",
    "hub": "CLE",
    "routeid": 4015
  },
  {
    "id": 16306,
    "name": "Hervey Memorial Library",
    "address": "15 N. Main Street",
    "city": "Utica",
    "state": "OH",
    "zip": 43080,
    "seo": "LUT",
    "hub": "CMH",
    "routeid": 3005
  },
  {
    "id": 9400,
    "name": "Grafton-Midview Public Library",
    "address": "983 Main Street",
    "city": "Grafton",
    "state": "OH",
    "zip": 44044,
    "seo": "",
    "hub": "CLE",
    "routeid": 4009
  },
  {
    "id": 400,
    "name": "Alger Public Library",
    "address": "100 West Wagner Street",
    "city": "Alger",
    "state": "OH",
    "zip": 45812,
    "seo": "ALG",
    "hub": "TOL",
    "routeid": 5003
  },
  {
    "id": 21000,
    "name": "Sunbury Community Library",
    "address": "44 Burrer Dr",
    "city": "Sunbury",
    "state": "OH",
    "zip": 43074,
    "seo": "",
    "hub": "CMH",
    "routeid": 3003
  },
  {
    "id": 90001,
    "name": "Lake Erie Correctional Inst.",
    "address": "501 Thompson Dr.",
    "city": "Coneaut",
    "state": "OH",
    "zip": 44030,
    "seo": "",
    "hub": "CLE",
    "routeid": 4015
  },
  {
    "id": 15603,
    "name": "Athens Public Library [Athens Co. Library]",
    "address": "30 Home Street",
    "city": "Athens",
    "state": "OH",
    "zip": 45701,
    "seo": "",
    "hub": "CMH",
    "routeid": 3009
  },
  {
    "id": 15605,
    "name": "Glouster Public Library  [Athens Co. Lib]",
    "address": "20 Toledo Street",
    "city": "Glouster",
    "state": "OH",
    "zip": 45732,
    "seo": "",
    "hub": "CMH",
    "routeid": 3009
  },
  {
    "id": 15607,
    "name": "The Plains Public Library [Athens Co. Lib]",
    "address": "14 South Plains Road",
    "city": "The Plains",
    "state": "OH",
    "zip": 45723,
    "seo": "",
    "hub": "CMH",
    "routeid": 3009
  },
  {
    "id": 15608,
    "name": "Coolville Public Library [Athens Co. Lib]",
    "address": "26401 Main Street",
    "city": "Coolville",
    "state": "OH",
    "zip": 45723,
    "seo": "",
    "hub": "CMH",
    "routeid": 3008
  },
  {
    "id": 15609,
    "name": "Wells (Albany) Public Library [Athens Co. Lib]",
    "address": "5200 Washington Road",
    "city": "Albany",
    "state": "OH",
    "zip": 45710,
    "seo": "",
    "hub": "CMH",
    "routeid": 3009
  },
  {
    "id": 29010,
    "name": "Crossroads Branch (Guernsey Co)",
    "address": "63500 Byesville Rd",
    "city": "Cambridge",
    "state": "OH",
    "zip": 43725,
    "seo": "GCT",
    "hub": "CMH",
    "routeid": 3025
  },
  {
    "id": 500,
    "name": "Rodman Public Library",
    "address": "215 East Broadway St",
    "city": "Alliance",
    "state": "OH",
    "zip": 44601,
    "seo": "ROD",
    "hub": "CLE",
    "routeid": 4003
  },
  {
    "id": 1100,
    "name": "Wornstaff Memorial P.L.",
    "address": "302 East High Street",
    "city": "Ashley",
    "state": "OH",
    "zip": 43003,
    "seo": "",
    "hub": "CMH",
    "routeid": 3016
  },
  {
    "id": 31578,
    "name": "Eaton Community Schools (Bruce Elem)",
    "address": "506 B Aukerman St.",
    "city": "Eaton",
    "state": "OH",
    "zip": 45320,
    "seo": "ESB",
    "hub": "DAY",
    "routeid": 2005
  },
  {
    "id": 600,
    "name": "Amherst Public Library",
    "address": "221 Spring Street",
    "city": "Amherst",
    "state": "OH",
    "zip": 44001,
    "seo": "",
    "hub": "CLE",
    "routeid": 4010
  },
  {
    "id": 19299,
    "name": "Aberdeen Branch",
    "address": "1730 US 52 W",
    "city": "Aberdeen",
    "state": "OH",
    "zip": 45101,
    "seo": "UTA",
    "hub": "CVG",
    "routeid": 1006
  },
  {
    "id": 100,
    "name": "Ada P. L.",
    "address": "320 N Main Street",
    "city": "Ada",
    "state": "OH",
    "zip": 45810,
    "seo": "ADA",
    "hub": "TOL",
    "routeid": 5003
  },
  {
    "id": 20803,
    "name": "Adena Branch",
    "address": "167 Hanna Ave.",
    "city": "Adena",
    "state": "OH",
    "zip": 43901,
    "seo": "STA",
    "hub": "CLE",
    "routeid": 4003
  },
  {
    "id": 200,
    "name": "Akron-Summit County P.L.",
    "address": "60 S High Street",
    "city": "Akron",
    "state": "OH",
    "zip": 44326,
    "seo": "",
    "hub": "CLE",
    "routeid": 4017
  },
  {
    "id": 9300,
    "name": "Gnadenhutten Public Library",
    "address": "160 N. Walnut Street",
    "city": "Gnadenhutten",
    "state": "OH",
    "zip": 44629,
    "seo": "GNA",
    "hub": "CLE",
    "routeid": 4004
  },
  {
    "id": 700,
    "name": "Andover P. L.",
    "address": "142 W. Main St. POB 1210",
    "city": "Andover",
    "state": "OH",
    "zip": 44003,
    "seo": "",
    "hub": "CLE",
    "routeid": 4012
  },
  {
    "id": 800,
    "name": "Arcanum P. L.",
    "address": "101 North Street",
    "city": "Arcanum",
    "state": "OH",
    "zip": 45304,
    "seo": "",
    "hub": "DAY",
    "routeid": 2001
  },
  {
    "id": 900,
    "name": "Archbold Community Library",
    "address": "205 Stryker Street",
    "city": "Archbold",
    "state": "OH",
    "zip": 43502,
    "seo": "",
    "hub": "TOL",
    "routeid": 5002
  },
  {
    "id": 1000,
    "name": "Ashland P.L.",
    "address": "224 Claremont Avenue",
    "city": "Ashland",
    "state": "OH",
    "zip": 44805,
    "seo": "ASH",
    "hub": "CLE",
    "routeid": 4008
  },
  {
    "id": 1200,
    "name": "Ashtabula Co. Dist. Library",
    "address": "4335 Park Avenue",
    "city": "Ashtabula",
    "state": "OH",
    "zip": 44004,
    "seo": "ADL",
    "hub": "CLE",
    "routeid": 4015
  },
  {
    "id": 22500,
    "name": "Auglaize Co Pub Dist Lib",
    "address": "203 S Perry St",
    "city": "Wapakoneta",
    "state": "OH",
    "zip": 45895,
    "seo": "",
    "hub": "DAY",
    "routeid": 2002
  },
  {
    "id": 1500,
    "name": "Avon Lake P. L.",
    "address": "32649 Electric Blvd",
    "city": "Avon Lake",
    "state": "OH",
    "zip": 44012,
    "seo": "",
    "hub": "CLE",
    "routeid": 4011
  },
  {
    "id": 13102,
    "name": "Barlow Branch",
    "address": "45 White Oak Professional Center",
    "city": "Vincent",
    "state": "OH",
    "zip": 45784,
    "seo": "WCR",
    "hub": "CMH",
    "routeid": 3008
  },
  {
    "id": 1700,
    "name": "Barnesville Hutton Mem.",
    "address": "308 East Main Street",
    "city": "Barnesville",
    "state": "OH",
    "zip": 43713,
    "seo": "BAR",
    "hub": "CMH",
    "routeid": 3006
  },
  {
    "id": 1900,
    "name": "Bellaire P. L.",
    "address": "330 32nd Street",
    "city": "Bellaire",
    "state": "OH",
    "zip": 43906,
    "seo": "BEL",
    "hub": "CMH",
    "routeid": 3006
  },
  {
    "id": 2200,
    "name": "Bellevue P. L.",
    "address": "224 E Main Street",
    "city": "Bellevue",
    "state": "OH",
    "zip": 44811,
    "seo": "",
    "hub": "CLE",
    "routeid": 4009
  },
  {
    "id": 13103,
    "name": "Belpre Branch",
    "address": "2012 Washington Blvd.",
    "city": "Belpre",
    "state": "OH",
    "zip": 45714,
    "seo": "WCB",
    "hub": "CMH",
    "routeid": 3008
  },
  {
    "id": 13303,
    "name": "Bethesda Library Branch",
    "address": "112 N. Main St.",
    "city": "Bethesda",
    "state": "OH",
    "zip": 43719,
    "seo": "MBE",
    "hub": "CMH",
    "routeid": 3006
  },
  {
    "id": 13104,
    "name": "Beverly Branch-L. Pomeroy",
    "address": "1 McIntosh St.; POB 728",
    "city": "Beverly",
    "state": "OH",
    "zip": 45715,
    "seo": "WCL",
    "hub": "CMH",
    "routeid": 3008
  },
  {
    "id": 8600,
    "name": "Birchard P.L.- Sandusky Co.[Fremont]",
    "address": "423 Croghan Street",
    "city": "Fremont",
    "state": "OH",
    "zip": 43420,
    "seo": "",
    "hub": "TOL",
    "routeid": 5005
  },
  {
    "id": 2500,
    "name": "Blanchester P. L.",
    "address": "110 N Broadway",
    "city": "Blanchester",
    "state": "OH",
    "zip": 45107,
    "seo": "",
    "hub": "CVG",
    "routeid": 1005
  },
  {
    "id": 2600,
    "name": "Bliss Memorial P. L.",
    "address": "20 S Marion St;  PO Box 39",
    "city": "Bloomville",
    "state": "OH",
    "zip": 44818,
    "seo": "BML",
    "hub": "TOL",
    "routeid": 5004
  },
  {
    "id": 2700,
    "name": "Bluffton P.L.",
    "address": "145 S Main Street",
    "city": "Bluffton",
    "state": "OH",
    "zip": 45817,
    "seo": "BLU",
    "hub": "TOL",
    "routeid": 5003
  },
  {
    "id": 2800,
    "name": "Bowerston P. L.",
    "address": "200 Main Street",
    "city": "Bowerston",
    "state": "OH",
    "zip": 44695,
    "seo": "BDO",
    "hub": "CLE",
    "routeid": 4004
  },
  {
    "id": 13304,
    "name": "Bridgeport Branch Library",
    "address": "661 Main St.",
    "city": "Bridgeport",
    "state": "OH",
    "zip": 43912,
    "seo": "MBR",
    "hub": "CLE",
    "routeid": 4003
  },
  {
    "id": 10700,
    "name": "Briggs Lawrence County P. L.",
    "address": "321 S 4th Street",
    "city": "Ironton",
    "state": "OH",
    "zip": 45638,
    "seo": "",
    "hub": "CVG",
    "routeid": 1007
  },
  {
    "id": 20804,
    "name": "Brilliant Branch",
    "address": "103 Steuben Street",
    "city": "Brilliant",
    "state": "OH",
    "zip": 43913,
    "seo": "STB",
    "hub": "CLE",
    "routeid": 4003
  },
  {
    "id": 3100,
    "name": "Bristol P. L.",
    "address": "1855 Greenville Rd;  PO Box 220",
    "city": "Bristolville",
    "state": "OH",
    "zip": 44402,
    "seo": "",
    "hub": "CLE",
    "routeid": 4012
  },
  {
    "id": 9000,
    "name": "Brown Co. P. L. (Georgetown)",
    "address": "200 W Grant Ave",
    "city": "Georgetown",
    "state": "OH",
    "zip": 45121,
    "seo": "BCG",
    "hub": "CVG",
    "routeid": 1006
  },
  {
    "id": 11900,
    "name": "Brown Memorial Library",
    "address": "101 S Commerce;  Box 640",
    "city": "Lewisburg",
    "state": "OH",
    "zip": 45338,
    "seo": "BWN",
    "hub": "DAY",
    "routeid": 2005
  },
  {
    "id": 22100,
    "name": "Brumback Library",
    "address": "215 W Main Street",
    "city": "Van Wert",
    "state": "OH",
    "zip": 45891,
    "seo": "",
    "hub": "DAY",
    "routeid": 2001
  },
  {
    "id": 3300,
    "name": "Bucyrus P. L.",
    "address": "200 East Mansfield Street",
    "city": "Bucyrus",
    "state": "OH",
    "zip": 44820,
    "seo": "",
    "hub": "CMH",
    "routeid": 3016
  },
  {
    "id": 3400,
    "name": "Burton P. L.",
    "address": "PO Box 427; 14588 W. Park St.",
    "city": "Burton",
    "state": "OH",
    "zip": 44021,
    "seo": "",
    "hub": "CLE",
    "routeid": 4012
  },
  {
    "id": 3600,
    "name": "Caldwell P. L.",
    "address": "517 Spruce Street;  PO Box 230",
    "city": "Caldwell",
    "state": "OH",
    "zip": 43724,
    "seo": "CAL",
    "hub": "CMH",
    "routeid": 3025
  },
  {
    "id": 3800,
    "name": "Canal Fulton P. L.",
    "address": "154 Market St NE",
    "city": "Canal Fulton",
    "state": "OH",
    "zip": 44614,
    "seo": "CFP",
    "hub": "CLE",
    "routeid": "4006C"
  },
  {
    "id": 4000,
    "name": "Cardington-Lincoln Public Library",
    "address": "128 E Main Street; PO Box 38",
    "city": "Cardington",
    "state": "OH",
    "zip": 43315,
    "seo": "",
    "hub": "CMH",
    "routeid": 3016
  },
  {
    "id": 7300,
    "name": "Carnegie P/L East Liverpool",
    "address": "219 E 4th Street",
    "city": "East Liverpool",
    "state": "OH",
    "zip": 43920,
    "seo": "CEL",
    "hub": "CLE",
    "routeid": 4003
  },
  {
    "id": 22700,
    "name": "Carnegie P/L Washington C. H.",
    "address": "127 S North St",
    "city": "Washington C H",
    "state": "OH",
    "zip": 43160,
    "seo": "WCH",
    "hub": "CVG",
    "routeid": 1005
  },
  {
    "id": 4200,
    "name": "Carroll County District Library",
    "address": "70 Second St NE",
    "city": "Carrollton",
    "state": "OH",
    "zip": 44615,
    "seo": "CCC",
    "hub": "CLE",
    "routeid": 4004
  },
  {
    "id": 22000,
    "name": "Champaign County Library",
    "address": "1060 Scioto Street",
    "city": "Urbana",
    "state": "OH",
    "zip": 43078,
    "seo": "",
    "hub": "DAY",
    "routeid": 2003
  },
  {
    "id": 80800,
    "name": "Chatfield College",
    "address": "20918 State Route 251",
    "city": "St Martin",
    "state": "OH",
    "zip": 45118,
    "seo": "OCC",
    "hub": "CVG",
    "routeid": 1005
  },
  {
    "id": 13903,
    "name": "Chesterhill Branch",
    "address": "7520 Marion St.",
    "city": "Chesterhill",
    "state": "OH",
    "zip": 43728,
    "seo": "KLC",
    "hub": "CMH",
    "routeid": 3008
  },
  {
    "id": 4800,
    "name": "Chillicothe & Ross County P.L.",
    "address": "Box 185; 140-146 S Paint Street",
    "city": "Chillicothe",
    "state": "OH",
    "zip": 45601,
    "seo": "CHI",
    "hub": "CMH",
    "routeid": 3010
  },
  {
    "id": 3503,
    "name": "Clark Memorial Branch",
    "address": "102 West Main St.",
    "city": "Freeport",
    "state": "OH",
    "zip": 43973,
    "seo": "PPC",
    "hub": "CLE",
    "routeid": 4004
  },
  {
    "id": 6800,
    "name": "Claymont P. L.",
    "address": "215 E 3rd Street",
    "city": "Uhrichsville",
    "state": "OH",
    "zip": 44683,
    "seo": "CUH",
    "hub": "CLE",
    "routeid": 4004
  },
  {
    "id": 6803,
    "name": "Claymont P. L.-Dennison Branch",
    "address": "15 N. 4th St.",
    "city": "Dennison",
    "state": "OH",
    "zip": 44621,
    "seo": "CDE",
    "hub": "CLE",
    "routeid": 4004
  },
  {
    "id": 1800,
    "name": "Clermont County P.L. Technical Services Department",
    "address": "5920 Buckwheat Road",
    "city": "Milford",
    "state": "OH",
    "zip": 45150,
    "seo": "",
    "hub": "CVG",
    "routeid": 1006
  },
  {
    "id": 5300,
    "name": "Cleveland Hts-University Hts. P. L.",
    "address": "2345 Lee Rd",
    "city": "Cleveland Heights",
    "state": "OH",
    "zip": 44118,
    "seo": "",
    "hub": "CLE",
    "routeid": "4014B"
  },
  {
    "id": 5100,
    "name": "Cleveland P. L.",
    "address": "325 Superior",
    "city": "Cleveland",
    "state": "OH",
    "zip": 44114,
    "seo": "",
    "hub": "CLE",
    "routeid": "4000A"
  },
  {
    "id": 5400,
    "name": "Clyde P. L.",
    "address": "222 W Buckeye St",
    "city": "Clyde",
    "state": "OH",
    "zip": 43410,
    "seo": "",
    "hub": "TOL",
    "routeid": 5005
  },
  {
    "id": 5500,
    "name": "Coldwater P. L.",
    "address": "305 W Main Street",
    "city": "Coldwater",
    "state": "OH",
    "zip": 45828,
    "seo": "",
    "hub": "DAY",
    "routeid": 2001
  },
  {
    "id": 5800,
    "name": "Conneaut P. L.",
    "address": "304 Buffalo Street",
    "city": "Conneaut",
    "state": "OH",
    "zip": 44030,
    "seo": "",
    "hub": "CLE",
    "routeid": 4015
  },
  {
    "id": 15804,
    "name": "Corning Branch Library",
    "address": "113 Eleventh Street",
    "city": "Corning",
    "state": "OH",
    "zip": 43730,
    "seo": "PCO",
    "hub": "CMH",
    "routeid": 3008
  },
  {
    "id": 5900,
    "name": "Coshocton Co. Dist. Library",
    "address": "655 Main Street",
    "city": "Coshocton",
    "state": "OH",
    "zip": 43812,
    "seo": "CPL",
    "hub": "CMH",
    "routeid": 3005
  },
  {
    "id": 6100,
    "name": "Crestline P. L.",
    "address": "324 N Thoman St",
    "city": "Crestline",
    "state": "OH",
    "zip": 44827,
    "seo": "",
    "hub": "CMH",
    "routeid": 3016
  },
  {
    "id": 122,
    "name": "Lepper Library",
    "address": "303 East Lincoln Way",
    "city": "Lisbon",
    "state": "OH",
    "zip": 44432,
    "seo": "",
    "hub": "CLE",
    "routeid": 4002
  },
  {
    "id": 15805,
    "name": "Crooksville Branch Library",
    "address": "111 E. Main St.",
    "city": "Crooksville",
    "state": "OH",
    "zip": 43731,
    "seo": "PCR",
    "hub": "CMH",
    "routeid": 3008
  },
  {
    "id": 5200,
    "name": "Cuyahoga County P. L.",
    "address": "2111 Snow Road",
    "city": "Parma",
    "state": "OH",
    "zip": 44134,
    "seo": "",
    "hub": "CLE",
    "routeid": 4008
  },
  {
    "id": 6400,
    "name": "Defiance P. L.",
    "address": "320 Fort Street",
    "city": "Defiance",
    "state": "OH",
    "zip": 43512,
    "seo": "DPL",
    "hub": "TOL",
    "routeid": 5002
  },
  {
    "id": 6600,
    "name": "Delphos P. L.",
    "address": "309 W Second St.",
    "city": "Delphos",
    "state": "OH",
    "zip": 45833,
    "seo": "DEL",
    "hub": "DAY",
    "routeid": 2001
  },
  {
    "id": 6700,
    "name": "Delta P. L.",
    "address": "402 Main Street",
    "city": "Delta",
    "state": "OH",
    "zip": 43515,
    "seo": "",
    "hub": "TOL",
    "routeid": 5002
  },
  {
    "id": 6900,
    "name": "Deshler Edwin Wood Mem. Lib.",
    "address": "208 North East Avenue",
    "city": "Deshler",
    "state": "OH",
    "zip": 43516,
    "seo": "DES",
    "hub": "TOL",
    "routeid": 5003
  },
  {
    "id": 20805,
    "name": "Dillonvale-Mt. Pleasant Branch",
    "address": "192 Cole Street",
    "city": "Dillonvale",
    "state": "OH",
    "zip": 43917,
    "seo": "STD",
    "hub": "CLE",
    "routeid": 4003
  },
  {
    "id": 4100,
    "name": "Dorcas Carey P. L.",
    "address": "236 E Findlay Street",
    "city": "Carey",
    "state": "OH",
    "zip": 43316,
    "seo": "DCP",
    "hub": "TOL",
    "routeid": 5004
  },
  {
    "id": 7000,
    "name": "Dover P. L.",
    "address": "525  Walnut Street",
    "city": "Dover",
    "state": "OH",
    "zip": 44622,
    "seo": "",
    "hub": "CLE",
    "routeid": "4006D"
  },
  {
    "id": 8800,
    "name": "Dr Samuel L Bossard Mem. Lib.",
    "address": "7 Spruce Street",
    "city": "Gallipolis",
    "state": "OH",
    "zip": 45631,
    "seo": "",
    "hub": "CVG",
    "routeid": 1007
  },
  {
    "id": 7200,
    "name": "East Cleveland P. L.",
    "address": "14101 Euclid Avenue",
    "city": "East Cleveland",
    "state": "OH",
    "zip": 44112,
    "seo": "",
    "hub": "CLE",
    "routeid": 4000
  },
  {
    "id": 7400,
    "name": "East Palestine Memorial P. L.",
    "address": "309 N Market Street",
    "city": "East Palestine",
    "state": "OH",
    "zip": 44413,
    "seo": "",
    "hub": "CLE",
    "routeid": 4002
  },
  {
    "id": 80801,
    "name": "Chatfield College - Over the Rhine branch",
    "address": "1544 Central Parkway",
    "city": "Cincinnati",
    "state": "OH",
    "zip": 45202,
    "seo": "OCF",
    "hub": "CVG",
    "routeid": 1002
  },
  {
    "id": 18801,
    "name": "Marblehead Peninsula Branch Library",
    "address": "710 W. Main Street",
    "city": "Marblehead",
    "state": "OH",
    "zip": 43440,
    "seo": "PCM",
    "hub": "TOL",
    "routeid": 5005
  },
  {
    "id": 7800,
    "name": "Euclid P. L.",
    "address": "631 E 222nd Street",
    "city": "Euclid",
    "state": "OH",
    "zip": 44123,
    "seo": "",
    "hub": "CLE",
    "routeid": "4000E"
  },
  {
    "id": 14300,
    "name": "Evergreen Community Library",
    "address": "253 Maple St;  PO Box E",
    "city": "Metamora",
    "state": "OH",
    "zip": 43540,
    "seo": "",
    "hub": "TOL",
    "routeid": 5002
  },
  {
    "id": 7900,
    "name": "Fairport Harbor P. L.",
    "address": "335 Vine Street",
    "city": "Fairport Harbor",
    "state": "OH",
    "zip": 44077,
    "seo": "",
    "hub": "CLE",
    "routeid": 4015
  },
  {
    "id": 9098,
    "name": "Fayetteville-Perry Library",
    "address": "406 N. East St.",
    "city": "Fayetteville",
    "state": "OH",
    "zip": 45118,
    "seo": "BCF",
    "hub": "CVG",
    "routeid": 1005
  },
  {
    "id": 8100,
    "name": "Findlay-Hancock County P. L.",
    "address": "206 Broadway",
    "city": "Findlay",
    "state": "OH",
    "zip": 45840,
    "seo": "FIN",
    "hub": "TOL",
    "routeid": 5003
  },
  {
    "id": 18500,
    "name": "Piqua P. L.",
    "address": "116 W. High St.",
    "city": "Piqua",
    "state": "OH",
    "zip": 45356,
    "seo": "",
    "hub": "DAY",
    "routeid": 2002
  },
  {
    "id": 8200,
    "name": "Forest-Jackson P. L.",
    "address": "102 W. Lima St.",
    "city": "Forest",
    "state": "OH",
    "zip": 45843,
    "seo": "FJP",
    "hub": "TOL",
    "routeid": 5003
  },
  {
    "id": 8500,
    "name": "Franklin P. L.",
    "address": "44 E. Fourth St.",
    "city": "Franklin",
    "state": "OH",
    "zip": 45005,
    "seo": "",
    "hub": "DAY",
    "routeid": 2005
  },
  {
    "id": 8300,
    "name": "Ft  Recovery P. L.",
    "address": "PO Box 309; 113 N Wayne Street",
    "city": "Ft Recovery",
    "state": "OH",
    "zip": 45846,
    "seo": "FTR",
    "hub": "DAY",
    "routeid": 2001
  },
  {
    "id": 8700,
    "name": "Galion P. L. Association",
    "address": "123 N Market Street",
    "city": "Galion",
    "state": "OH",
    "zip": 44833,
    "seo": "",
    "hub": "CMH",
    "routeid": 3016
  },
  {
    "id": 22900,
    "name": "Garnet A Wilson P. L. of Pike Co.",
    "address": "207 N Market Street",
    "city": "Waverly",
    "state": "OH",
    "zip": 45690,
    "seo": "GWM",
    "hub": "CVG",
    "routeid": 1007
  },
  {
    "id": 4600,
    "name": "Geauga County P. L.",
    "address": "12701 Ravenwood Dr",
    "city": "Chardon",
    "state": "OH",
    "zip": 44024,
    "seo": "",
    "hub": "CLE",
    "routeid": 4013
  },
  {
    "id": 1203,
    "name": "Geneva Public Library",
    "address": "860 Sherman Street",
    "city": "Geneva",
    "state": "OH",
    "zip": 44041,
    "seo": "ADG",
    "hub": "CLE",
    "routeid": 4015
  },
  {
    "id": 7603,
    "name": "Genoa Branch Library",
    "address": "602 West Street",
    "city": "Genoa",
    "state": "OH",
    "zip": 43430,
    "seo": "ELG",
    "hub": "TOL",
    "routeid": 5005
  },
  {
    "id": 9100,
    "name": "Germantown P. L.",
    "address": "51 N Plum Street",
    "city": "Germantown",
    "state": "OH",
    "zip": 45327,
    "seo": "",
    "hub": "DAY",
    "routeid": 2005
  },
  {
    "id": 8603,
    "name": "Gibsonburg Branch",
    "address": "100 N. Webster St.",
    "city": "Gibsonburg",
    "state": "OH",
    "zip": 43431,
    "seo": "",
    "hub": "TOL",
    "routeid": 5005
  },
  {
    "id": 9200,
    "name": "Girard Free Library",
    "address": "105 E Prospect Street",
    "city": "Girard",
    "state": "OH",
    "zip": 44420,
    "seo": "",
    "hub": "CLE",
    "routeid": 4001
  },
  {
    "id": 23903,
    "name": "Grand Rapids Branch Library",
    "address": "17620 Bridge Street",
    "city": "Grand Rapids",
    "state": "OH",
    "zip": 43522,
    "seo": "WEG",
    "hub": "TOL",
    "routeid": 5003
  },
  {
    "id": 17500,
    "name": "Grand Valley P. L.",
    "address": "1 N School Street",
    "city": "Orwell",
    "state": "OH",
    "zip": 44076,
    "seo": "GVP",
    "hub": "CLE",
    "routeid": 4012
  },
  {
    "id": 24700,
    "name": "Greene County P. L.",
    "address": "2656 Indian Ripple Road",
    "city": "Beavercreek",
    "state": "OH",
    "zip": 45440,
    "seo": "",
    "hub": "DAY",
    "routeid": 2003
  },
  {
    "id": 10103,
    "name": "Greenfield Branch Library",
    "address": "1125 Jefferson St",
    "city": "Greenfield",
    "state": "OH",
    "zip": 45123,
    "seo": "HGR",
    "hub": "CVG",
    "routeid": 1005
  },
  {
    "id": 9800,
    "name": "Greenville P. L.",
    "address": "520 Sycamore St.",
    "city": "Greenville",
    "state": "OH",
    "zip": 45331,
    "seo": "",
    "hub": "DAY",
    "routeid": 2001
  },
  {
    "id": 24103,
    "name": "Greenwich - (Huron County Community Library)",
    "address": "4 New Street",
    "city": "Greenwich",
    "state": "OH",
    "zip": 44837,
    "seo": "WIG",
    "hub": "CLE",
    "routeid": 4008
  },
  {
    "id": 3700,
    "name": "Guernsey County Dist. P.L.",
    "address": "800 Steubenville Ave",
    "city": "Cambridge",
    "state": "OH",
    "zip": 43725,
    "seo": "GCC",
    "hub": "CMH",
    "routeid": 3025
  },
  {
    "id": 1300,
    "name": "Harbor-Topky Memorial Library",
    "address": "1633 Walnut Blvd",
    "city": "Ashtabula",
    "state": "OH",
    "zip": 44004,
    "seo": "",
    "hub": "CLE",
    "routeid": 4015
  },
  {
    "id": 7100,
    "name": "Hardin Northern P.L.",
    "address": "153 N. Main St.",
    "city": "Dunkirk",
    "state": "OH",
    "zip": 45836,
    "seo": "DUU",
    "hub": "TOL",
    "routeid": 5003
  },
  {
    "id": 7600,
    "name": "Harris-Elmore P. L.",
    "address": "328 Toledo Street; P.O. Box 45",
    "city": "Elmore",
    "state": "OH",
    "zip": 43416,
    "seo": "ELL",
    "hub": "TOL",
    "routeid": 5005
  },
  {
    "id": 10900,
    "name": "Henderson Memorial Lib. Assc.",
    "address": "54 E Jefferson Street",
    "city": "Jefferson",
    "state": "OH",
    "zip": 44047,
    "seo": "",
    "hub": "CLE",
    "routeid": 4013
  },
  {
    "id": 13700,
    "name": "Herbert Wescoat Mem. Lib.",
    "address": "120 North Market Street",
    "city": "McArthur",
    "state": "OH",
    "zip": 45651,
    "seo": "",
    "hub": "CMH",
    "routeid": 3010
  },
  {
    "id": 23200,
    "name": "Herrick Memorial Library",
    "address": "101 Willard Memorial Square",
    "city": "Wellington",
    "state": "OH",
    "zip": 44090,
    "seo": "",
    "hub": "CLE",
    "routeid": 4008
  },
  {
    "id": 10100,
    "name": "Hillsboro P. L. [Highland Co. Dist. Lib.]",
    "address": "10 Willettsville Pike",
    "city": "Hillsboro",
    "state": "OH",
    "zip": 45133,
    "seo": "HHI",
    "hub": "CVG",
    "routeid": 1005
  },
  {
    "id": 14600,
    "name": "Holmes County District P. L.",
    "address": "3102 Glen Dr",
    "city": "Millersburg",
    "state": "OH",
    "zip": 44654,
    "seo": "HCO",
    "hub": "CLE",
    "routeid": 4007
  },
  {
    "id": 10400,
    "name": "Hubbard P. L.",
    "address": "436 W Liberty Street",
    "city": "Hubbard",
    "state": "OH",
    "zip": 44425,
    "seo": "",
    "hub": "CLE",
    "routeid": 4001
  },
  {
    "id": 10500,
    "name": "Hudson Lib. & Historical Soc.",
    "address": "96 Library Street",
    "city": "Hudson",
    "state": "OH",
    "zip": 44236,
    "seo": "",
    "hub": "CLE",
    "routeid": "4005A"
  },
  {
    "id": 10600,
    "name": "Huron P. L.",
    "address": "333 Williams Street",
    "city": "Huron",
    "state": "OH",
    "zip": 44839,
    "seo": "",
    "hub": "CLE",
    "routeid": 4010
  },
  {
    "id": 10800,
    "name": "Jackson City Library",
    "address": "21 Broadway St",
    "city": "Jackson",
    "state": "OH",
    "zip": 45640,
    "seo": "",
    "hub": "CVG",
    "routeid": 1007
  },
  {
    "id": 22703,
    "name": "Jeffersonville Branch",
    "address": "8 North Main St",
    "city": "Jeffersonville",
    "state": "OH",
    "zip": 43128,
    "seo": "WCJ",
    "hub": "CVG",
    "routeid": 1005
  },
  {
    "id": 15806,
    "name": "Junction City Branch Library",
    "address": "108 W. Main St.",
    "city": "Junction City",
    "state": "OH",
    "zip": 43748,
    "seo": "PJC",
    "hub": "CMH",
    "routeid": 3008
  },
  {
    "id": 13900,
    "name": "K. L. Simpson Morgan Co. Lib.",
    "address": "358 E Main Street",
    "city": "McConnelsville",
    "state": "OH",
    "zip": 43756,
    "seo": "KLS",
    "hub": "CMH",
    "routeid": 3008
  },
  {
    "id": 8400,
    "name": "Kaubisch Memorial P. L.",
    "address": "205 Perry Street",
    "city": "Fostoria",
    "state": "OH",
    "zip": 44830,
    "seo": "KAU",
    "hub": "TOL",
    "routeid": 5004
  },
  {
    "id": 4805,
    "name": "Kingston Branch",
    "address": "89 N Main St",
    "city": "Kingston",
    "state": "OH",
    "zip": 45644,
    "seo": "CHK",
    "hub": "CMH",
    "routeid": 3010
  },
  {
    "id": 11200,
    "name": "Kingsville P. L.",
    "address": "6006 Academy St",
    "city": "Kingsville",
    "state": "OH",
    "zip": 44048,
    "seo": "",
    "hub": "CLE",
    "routeid": 4015
  },
  {
    "id": 11300,
    "name": "Kinsman Free P. L.",
    "address": "6420 Church St;  PO Box 166",
    "city": "Kinsman",
    "state": "OH",
    "zip": 44428,
    "seo": "",
    "hub": "CLE",
    "routeid": 4012
  },
  {
    "id": 11400,
    "name": "Kirtland P. L.",
    "address": "9267 Chillicothe Rd",
    "city": "Kirtland",
    "state": "OH",
    "zip": 44094,
    "seo": "",
    "hub": "CLE",
    "routeid": 4015
  },
  {
    "id": 11500,
    "name": "Lakewood P. L.",
    "address": "15425 Detroit Avenue",
    "city": "Lakewood",
    "state": "OH",
    "zip": 44107,
    "seo": "",
    "hub": "CLE",
    "routeid": 4011
  },
  {
    "id": 10000,
    "name": "Lane P. L.-Administration Center",
    "address": "1396 University Blvd.",
    "city": "Hamilton",
    "state": "OH",
    "zip": 45011,
    "seo": "",
    "hub": "CVG",
    "routeid": 1004
  },
  {
    "id": 11700,
    "name": "Lebanon P. L.",
    "address": "101 S Broadway",
    "city": "Lebanon",
    "state": "OH",
    "zip": 45036,
    "seo": "",
    "hub": "CVG",
    "routeid": 1008
  },
  {
    "id": 10104,
    "name": "Leesburg Branch Library",
    "address": "240 E. Main St.",
    "city": "Leesburg",
    "state": "OH",
    "zip": 45135,
    "seo": "HLE",
    "hub": "CVG",
    "routeid": 1005
  },
  {
    "id": 11800,
    "name": "Leetonia P. L.",
    "address": "181 Walnut Street",
    "city": "Leetonia",
    "state": "OH",
    "zip": 44431,
    "seo": "LEE",
    "hub": "CLE",
    "routeid": 4002
  },
  {
    "id": 12000,
    "name": "Liberty Center P. L.",
    "address": "124 East Street; P.O. Box 66",
    "city": "Liberty Center",
    "state": "OH",
    "zip": 43532,
    "seo": "LCP",
    "hub": "TOL",
    "routeid": 5002
  },
  {
    "id": 12100,
    "name": "Lima P. L.",
    "address": "650 W Market St",
    "city": "Lima",
    "state": "OH",
    "zip": 45801,
    "seo": "",
    "hub": "DAY",
    "routeid": 2002
  },
  {
    "id": 2100,
    "name": "Logan County Libraries",
    "address": "220 N. Main St",
    "city": "Bellefontaine",
    "state": "OH",
    "zip": 43311,
    "seo": "LOG",
    "hub": "DAY",
    "routeid": 2006
  },
  {
    "id": 1,
    "name": "Central Library Consortium",
    "address": "101 S. Stygler Rd",
    "city": "Columbus",
    "state": "OH",
    "zip": 43230,
    "seo": "",
    "hub": "CMH",
    "routeid": 3020
  },
  {
    "id": 37705,
    "name": "Twin Valley Community Schools",
    "address": "100 Education Drive",
    "city": "West Alexandria",
    "state": "OH",
    "zip": 45381,
    "seo": "TVA",
    "hub": "DAY",
    "routeid": 2005
  },
  {
    "id": 12500,
    "name": "Lorain P. L. System",
    "address": "351 Sixth Street",
    "city": "Lorain",
    "state": "OH",
    "zip": 44052,
    "seo": "",
    "hub": "CLE",
    "routeid": "4010A"
  },
  {
    "id": 12600,
    "name": "Loudonville P. L.",
    "address": "122 East Main Street",
    "city": "Loudonville",
    "state": "OH",
    "zip": 44842,
    "seo": "LOU",
    "hub": "CMH",
    "routeid": 3017
  },
  {
    "id": 12700,
    "name": "Louisville P. L.",
    "address": "700 Lincoln Ave",
    "city": "Louisville",
    "state": "OH",
    "zip": 44641,
    "seo": "LSV",
    "hub": "CLE",
    "routeid": "4004D"
  },
  {
    "id": 10105,
    "name": "Lynchburg Branch Library",
    "address": "102 S. Main St.",
    "city": "Lynchburg",
    "state": "OH",
    "zip": 45142,
    "seo": "HLY",
    "hub": "CVG",
    "routeid": 1005
  },
  {
    "id": 11100,
    "name": "M. L. Johnson-Hardin Co. Lib.",
    "address": "325 E. Columbus St.",
    "city": "Kenton",
    "state": "OH",
    "zip": 43326,
    "seo": "",
    "hub": "TOL",
    "routeid": 5003
  },
  {
    "id": 12800,
    "name": "Madison P. L.",
    "address": "6111 Middle Ridge Road",
    "city": "Madison",
    "state": "OH",
    "zip": 44057,
    "seo": "",
    "hub": "CLE",
    "routeid": "4015A"
  },
  {
    "id": 12904,
    "name": "Manchester P. L. [Adams Co.]",
    "address": "401 Pike St.",
    "city": "Manchester",
    "state": "OH",
    "zip": 45144,
    "seo": "ACM",
    "hub": "CVG",
    "routeid": 1006
  },
  {
    "id": 13300,
    "name": "Belmont County District Library",
    "address": "20 James Wright Place",
    "city": "Martins Ferry",
    "state": "OH",
    "zip": 43935,
    "seo": "MFP",
    "hub": "CLE",
    "routeid": 4003
  },
  {
    "id": 20200,
    "name": "Marvin Memorial Library",
    "address": "29 W Whitney Ave.",
    "city": "Shelby",
    "state": "OH",
    "zip": 44875,
    "seo": "",
    "hub": "CMH",
    "routeid": 3016
  },
  {
    "id": 23100,
    "name": "Mary L Cook P. L.",
    "address": "381 Old Stage Road",
    "city": "Waynesville",
    "state": "OH",
    "zip": 45068,
    "seo": "",
    "hub": "CVG",
    "routeid": 1005
  },
  {
    "id": 13500,
    "name": "Mason P. L.",
    "address": "200 Reading Road",
    "city": "Mason",
    "state": "OH",
    "zip": 45040,
    "seo": "",
    "hub": "CVG",
    "routeid": 1008
  },
  {
    "id": 13600,
    "name": "Massillon P. L.",
    "address": "208 Lincoln Way East",
    "city": "Massillon",
    "state": "OH",
    "zip": 44646,
    "seo": "",
    "hub": "CLE",
    "routeid": 4006
  },
  {
    "id": 13800,
    "name": "McComb P. L.",
    "address": "113 S Todd Street",
    "city": "McComb",
    "state": "OH",
    "zip": 45858,
    "seo": "MCB",
    "hub": "TOL",
    "routeid": 5003
  },
  {
    "id": 16600,
    "name": "McKinley Memorial Library",
    "address": "40 N Main St",
    "city": "Niles",
    "state": "OH",
    "zip": 44446,
    "seo": "",
    "hub": "CLE",
    "routeid": 4001
  },
  {
    "id": 14000,
    "name": "Mechanicsburg P. L.",
    "address": "60 S Main Street",
    "city": "Mechanicsburg",
    "state": "OH",
    "zip": 43044,
    "seo": "MEC",
    "hub": "DAY",
    "routeid": 2006
  },
  {
    "id": 14100,
    "name": "Medina County District Library",
    "address": "6625 Wolff Road",
    "city": "Medina",
    "state": "OH",
    "zip": 44256,
    "seo": "",
    "hub": "CLE",
    "routeid": 4008
  },
  {
    "id": 18700,
    "name": "Meigs County District Library",
    "address": "216 W Main Street",
    "city": "Pomeroy",
    "state": "OH",
    "zip": 45769,
    "seo": "",
    "hub": "CMH",
    "routeid": 3009
  },
  {
    "id": 4304,
    "name": "Mendon Union Branch Library",
    "address": "105 W. Market St.",
    "city": "Mendon",
    "state": "OH",
    "zip": 45862,
    "seo": "MCU",
    "hub": "DAY",
    "routeid": 2001
  },
  {
    "id": 14200,
    "name": "Mentor P. L.",
    "address": "8215 Mentor Avenue",
    "city": "Mentor",
    "state": "OH",
    "zip": 44060,
    "seo": "",
    "hub": "CLE",
    "routeid": 4015
  },
  {
    "id": 4300,
    "name": "Mercer County District Library",
    "address": "303 N Main Street",
    "city": "Celina",
    "state": "OH",
    "zip": 45822,
    "seo": "MCC",
    "hub": "DAY",
    "routeid": 2001
  },
  {
    "id": 14500,
    "name": "Milan Public Library",
    "address": "19 E Church St.",
    "city": "Milan",
    "state": "OH",
    "zip": 44846,
    "seo": "",
    "hub": "CLE",
    "routeid": 4009
  },
  {
    "id": 23600,
    "name": "Milton Union P. L.",
    "address": "560 S Main Street",
    "city": "West Milton",
    "state": "OH",
    "zip": 45383,
    "seo": "MIL",
    "hub": "DAY",
    "routeid": 2005
  },
  {
    "id": 14700,
    "name": "Minerva P. L.",
    "address": "677 Lynnwood Drive",
    "city": "Minerva",
    "state": "OH",
    "zip": 44657,
    "seo": "MIN",
    "hub": "CLE",
    "routeid": 4004
  },
  {
    "id": 21200,
    "name": "Mohawk Community Library",
    "address": "PO Box 9;  200 S Sycamore Ave",
    "city": "Sycamore",
    "state": "OH",
    "zip": 44882,
    "seo": "MCL",
    "hub": "TOL",
    "routeid": 5004
  },
  {
    "id": 24400,
    "name": "Monroe County District Library",
    "address": "96 Home Avenue",
    "city": "Woodsfield",
    "state": "OH",
    "zip": 43793,
    "seo": "MON",
    "hub": "CMH",
    "routeid": 3006
  },
  {
    "id": 14800,
    "name": "Monroeville P. L.",
    "address": "34 Monroe Street; P.O. Box 276",
    "city": "Monroeville",
    "state": "OH",
    "zip": 44847,
    "seo": "MPL",
    "hub": "CLE",
    "routeid": 4009
  },
  {
    "id": 14900,
    "name": "Montpelier P. L.",
    "address": "216 East Main Street",
    "city": "Montpelier",
    "state": "OH",
    "zip": 43543,
    "seo": "MTP",
    "hub": "TOL",
    "routeid": 5002
  },
  {
    "id": 17700,
    "name": "Morley Library",
    "address": "184 Phelps St",
    "city": "Painesville",
    "state": "OH",
    "zip": 44077,
    "seo": "",
    "hub": "CLE",
    "routeid": 4015
  },
  {
    "id": 15300,
    "name": "Mt Vernon & Knox County P. L.",
    "address": "201 N Mulberry Street",
    "city": "Mt Vernon",
    "state": "OH",
    "zip": 43050,
    "seo": "",
    "hub": "CMH",
    "routeid": 3017
  },
  {
    "id": 15100,
    "name": "Mt. Gilead P. L.",
    "address": "41 E High Street",
    "city": "Mt Gilead",
    "state": "OH",
    "zip": 43338,
    "seo": "",
    "hub": "CMH",
    "routeid": 3016
  },
  {
    "id": 9099,
    "name": "Mt. Orab Branch Library",
    "address": "613 South High Street",
    "city": "Mt. Orab",
    "state": "OH",
    "zip": 45154,
    "seo": "BCM",
    "hub": "CVG",
    "routeid": 1006
  },
  {
    "id": 15200,
    "name": "Mt. Sterling P. L.",
    "address": "60 W Columbus Street",
    "city": "Mt. Sterling",
    "state": "OH",
    "zip": 43143,
    "seo": "MSL",
    "hub": "CMH",
    "routeid": 3011
  },
  {
    "id": 25000,
    "name": "Muskingum Co. Lib. System",
    "address": "220 N Fifth Street",
    "city": "Zanesville",
    "state": "OH",
    "zip": 43701,
    "seo": "",
    "hub": "CMH",
    "routeid": 3018
  },
  {
    "id": 15500,
    "name": "Napoleon P. L.",
    "address": "310 W  Clinton Street",
    "city": "Napoleon",
    "state": "OH",
    "zip": 43545,
    "seo": "NAP",
    "hub": "TOL",
    "routeid": 5002
  },
  {
    "id": 15600,
    "name": "Nelsonville Public Library [Athens Co. Lib]",
    "address": "95 W. Washington Street",
    "city": "Nelsonville",
    "state": "OH",
    "zip": 45764,
    "seo": "",
    "hub": "CMH",
    "routeid": 3009
  },
  {
    "id": 22505,
    "name": "New Bremen P. L.",
    "address": "45 S. Washington Street",
    "city": "New Bremen",
    "state": "OH",
    "zip": 45869,
    "seo": "",
    "hub": "DAY",
    "routeid": 2002
  },
  {
    "id": 36058,
    "name": "Monroeville Schools",
    "address": "101 West St.",
    "city": "Monroeville",
    "state": "OH",
    "zip": 44847,
    "seo": "",
    "hub": "CLE",
    "routeid": "401A"
  },
  {
    "id": 15700,
    "name": "New Carlisle P. L.",
    "address": "111 E Lake Ave",
    "city": "New Carlisle",
    "state": "OH",
    "zip": 45344,
    "seo": "NCP",
    "hub": "DAY",
    "routeid": 2003
  },
  {
    "id": 16000,
    "name": "New Madison P. L.",
    "address": "P.O.Box 32; 142 S Main Street",
    "city": "New Madison",
    "state": "OH",
    "zip": 45346,
    "seo": "NMA",
    "hub": "DAY",
    "routeid": 2005
  },
  {
    "id": 13105,
    "name": "New Matamoras Branch",
    "address": "100 Merchant St.; PO Box 279",
    "city": "New Matamoras",
    "state": "OH",
    "zip": 45767,
    "seo": "WCN",
    "hub": "CMH",
    "routeid": 3006
  },
  {
    "id": 16300,
    "name": "Licking County Library",
    "address": "101 West Main Street",
    "city": "Newark",
    "state": "OH",
    "zip": 43055,
    "seo": "LNE",
    "hub": "CMH",
    "routeid": 3020
  },
  {
    "id": 16400,
    "name": "Newcomerstown P. L.",
    "address": "123 East Main St.",
    "city": "Newcomerstown",
    "state": "OH",
    "zip": 43832,
    "seo": "NCT",
    "hub": "CLE",
    "routeid": 4006
  },
  {
    "id": 16500,
    "name": "Newton Falls P. L.",
    "address": "204 S Canal Street",
    "city": "Newton Falls",
    "state": "OH",
    "zip": 44444,
    "seo": "",
    "hub": "CLE",
    "routeid": 4002
  },
  {
    "id": 29003,
    "name": "NEO Reg. Lib. System",
    "address": "1737 Georgetown Rd. Suite B",
    "city": "Hudson",
    "state": "OH",
    "zip": 44236,
    "seo": "",
    "hub": "CLE",
    "routeid": 4005
  },
  {
    "id": 8000,
    "name": "Normal Memorial Library",
    "address": "301 N Eagle Street",
    "city": "Fayette",
    "state": "OH",
    "zip": 43521,
    "seo": "NML",
    "hub": "TOL",
    "routeid": 5002
  },
  {
    "id": 16700,
    "name": "North Baltimore P. L.",
    "address": "230 N Main Street",
    "city": "North Baltimore",
    "state": "OH",
    "zip": 45872,
    "seo": "NBA",
    "hub": "TOL",
    "routeid": 5003
  },
  {
    "id": 16800,
    "name": "North Canton P. L.",
    "address": "185 N Main St",
    "city": "North Canton",
    "state": "OH",
    "zip": 44720,
    "seo": "",
    "hub": "CLE",
    "routeid": 4006
  },
  {
    "id": 24104,
    "name": "North Fairfield- (Huron County Community Library)",
    "address": "5 E. Main St.",
    "city": "North Fairfield",
    "state": "OH",
    "zip": 44855,
    "seo": "WIN",
    "hub": "CLE",
    "routeid": 4008
  },
  {
    "id": 16900,
    "name": "Norwalk P. L.",
    "address": "46 W Main Street",
    "city": "Norwalk",
    "state": "OH",
    "zip": 44857,
    "seo": "",
    "hub": "CLE",
    "routeid": 4009
  },
  {
    "id": 29005,
    "name": "NORWELD - NW Lib. Dist.",
    "address": "181 1/2 S Main Street",
    "city": "Bowling Green",
    "state": "OH",
    "zip": 43402,
    "seo": "",
    "hub": "TOL",
    "routeid": 5004
  },
  {
    "id": 17000,
    "name": "Oak Harbor P. L.",
    "address": "147 W Main Street",
    "city": "Oak Harbor",
    "state": "OH",
    "zip": 43449,
    "seo": "OHH",
    "hub": "TOL",
    "routeid": 5005
  },
  {
    "id": 17100,
    "name": "Oak Hill P. L.",
    "address": "226 S Front Street",
    "city": "Oak Hill",
    "state": "OH",
    "zip": 45656,
    "seo": "",
    "hub": "CVG",
    "routeid": 1007
  },
  {
    "id": 17300,
    "name": "Oberlin P. L.",
    "address": "65 S Main Street",
    "city": "Oberlin",
    "state": "OH",
    "zip": 44074,
    "seo": "",
    "hub": "CLE",
    "routeid": 4009
  },
  {
    "id": 17400,
    "name": "Orrville P. L.",
    "address": "230 N Main Street",
    "city": "Orrville",
    "state": "OH",
    "zip": 44667,
    "seo": "",
    "hub": "CLE",
    "routeid": 4007
  },
  {
    "id": 4900,
    "name": "P. L. of Cinci & Hamilton Co.",
    "address": "800 Vine Street",
    "city": "Cincinnati",
    "state": "OH",
    "zip": 45202,
    "seo": "",
    "hub": "CVG",
    "routeid": 1002
  },
  {
    "id": 17900,
    "name": "Paulding County Carnegie Library",
    "address": "205 S Main Street",
    "city": "Paulding",
    "state": "OH",
    "zip": 45879,
    "seo": "",
    "hub": "TOL",
    "routeid": 5002
  },
  {
    "id": 4803,
    "name": "Paxton Branch Library-Bainbridge",
    "address": "113 Dewey St.",
    "city": "Bainbridge",
    "state": "OH",
    "zip": 45612,
    "seo": "CHP",
    "hub": "CMH",
    "routeid": 3011
  },
  {
    "id": 12903,
    "name": "Peebles P.L. [Adams Co.]",
    "address": "157 High St.",
    "city": "Peebles",
    "state": "OH",
    "zip": 45660,
    "seo": "ACP",
    "hub": "CVG",
    "routeid": 1007
  },
  {
    "id": 18000,
    "name": "Pemberville P. L.",
    "address": "375 E Front St.  PO Box 809",
    "city": "Pemberville",
    "state": "OH",
    "zip": 43450,
    "seo": "PEM",
    "hub": "TOL",
    "routeid": 5004
  },
  {
    "id": 18100,
    "name": "Peninsula Library",
    "address": "6105 Riverview Rd;  Box 236",
    "city": "Peninsula",
    "state": "OH",
    "zip": 44264,
    "seo": "",
    "hub": "CLE",
    "routeid": 4005
  },
  {
    "id": 15800,
    "name": "Perry County District Library",
    "address": "117 S Jackson Street",
    "city": "New Lexington",
    "state": "OH",
    "zip": 43764,
    "seo": "PNL",
    "hub": "CMH",
    "routeid": 3008
  },
  {
    "id": 18200,
    "name": "Perry Public Library",
    "address": "3753 Main Street",
    "city": "Perry",
    "state": "OH",
    "zip": 44081,
    "seo": "",
    "hub": "CLE",
    "routeid": 4015
  },
  {
    "id": 31336,
    "name": "Conneaut High School",
    "address": "381 Mill St.",
    "city": "Conneaut",
    "state": "OH",
    "zip": 44030,
    "seo": "ADC",
    "hub": "CLE",
    "routeid": 4015
  },
  {
    "id": 4303,
    "name": "Zahn-Marion Branch Library",
    "address": "5 E. Franklin St.",
    "city": "Chickasaw",
    "state": "OH",
    "zip": 45826,
    "seo": "MCM",
    "hub": "DAY",
    "routeid": 2001
  },
  {
    "id": 15900,
    "name": "New London P.L.",
    "address": "67 S. Main St.",
    "city": "New London",
    "state": "OH",
    "zip": 44851,
    "seo": "NLL",
    "hub": "CLE",
    "routeid": 4008
  },
  {
    "id": 18800,
    "name": "Port Clinton P. L. (Ida Rupp)",
    "address": "310 Madison Street",
    "city": "Port Clinton",
    "state": "OH",
    "zip": 43452,
    "seo": "PCL",
    "hub": "TOL",
    "routeid": 5005
  },
  {
    "id": 8900,
    "name": "Portage County District Library",
    "address": "10482 South Street",
    "city": "Garrettsville",
    "state": "OH",
    "zip": 44231,
    "seo": "",
    "hub": "CLE",
    "routeid": "4001A"
  },
  {
    "id": 23800,
    "name": "Porter P. L.",
    "address": "27333 Center Ridge Road",
    "city": "Westlake",
    "state": "OH",
    "zip": 44145,
    "seo": "",
    "hub": "CLE",
    "routeid": 4010
  },
  {
    "id": 18900,
    "name": "Portsmouth P. L.",
    "address": "1220 Gallia Street",
    "city": "Portsmouth",
    "state": "OH",
    "zip": 45662,
    "seo": "",
    "hub": "CVG",
    "routeid": 1007
  },
  {
    "id": 13307,
    "name": "Powhatan Point Branch Lib",
    "address": "339 N. Rt. 7",
    "city": "Powhatan Point",
    "state": "OH",
    "zip": 43942,
    "seo": "MPO",
    "hub": "CMH",
    "routeid": 3006
  },
  {
    "id": 7500,
    "name": "Preble County District Library",
    "address": "450 South Barron Street",
    "city": "Eaton",
    "state": "OH",
    "zip": 45320,
    "seo": "PRD",
    "hub": "DAY",
    "routeid": 2005
  },
  {
    "id": 3500,
    "name": "Puskarich P. L.",
    "address": "200 E Market St",
    "city": "Cadiz",
    "state": "OH",
    "zip": 43907,
    "seo": "PPL",
    "hub": "CLE",
    "routeid": 4004
  },
  {
    "id": 17600,
    "name": "Putnam County District Library",
    "address": "136 Putnam Parkway",
    "city": "Ottawa",
    "state": "OH",
    "zip": 45875,
    "seo": "PTM",
    "hub": "TOL",
    "routeid": 5003
  },
  {
    "id": 4806,
    "name": "Richmond Dale Branch",
    "address": "770 Main St.",
    "city": "Richmond Dale",
    "state": "OH",
    "zip": 45673,
    "seo": "CHR",
    "hub": "CMH",
    "routeid": 3010
  },
  {
    "id": 15400,
    "name": "Ridgemont P. L.",
    "address": "124 E Taylor St;  PO Box 318",
    "city": "Mt Victory",
    "state": "OH",
    "zip": 43340,
    "seo": "HRP",
    "hub": "TOL",
    "routeid": 5003
  },
  {
    "id": 22200,
    "name": "Ritter P. L.",
    "address": "5680 Liberty Avenue",
    "city": "Vermilion",
    "state": "OH",
    "zip": 44089,
    "seo": "",
    "hub": "CLE",
    "routeid": 4010
  },
  {
    "id": 19300,
    "name": "Rock Creek P. L.",
    "address": "2988 High Street",
    "city": "Rock Creek",
    "state": "OH",
    "zip": 44084,
    "seo": "",
    "hub": "CLE",
    "routeid": 4013
  },
  {
    "id": 19400,
    "name": "Rockford Carnegie Library",
    "address": "162 S Main ; PO Box 330",
    "city": "Rockford",
    "state": "OH",
    "zip": 45882,
    "seo": "ROC",
    "hub": "DAY",
    "routeid": 2001
  },
  {
    "id": 19500,
    "name": "Rocky River P. L.",
    "address": "1600 Hampton Road",
    "city": "Rocky River",
    "state": "OH",
    "zip": 44116,
    "seo": "",
    "hub": "CLE",
    "routeid": 4011
  },
  {
    "id": 19600,
    "name": "Rossford P. L.",
    "address": "720 Dixie Highway",
    "city": "Rossford",
    "state": "OH",
    "zip": 43460,
    "seo": "ROS",
    "hub": "TOL",
    "routeid": 5001
  },
  {
    "id": 19700,
    "name": "Sabina P. L.",
    "address": "11 E Elm Street",
    "city": "Sabina",
    "state": "OH",
    "zip": 45169,
    "seo": "",
    "hub": "CVG",
    "routeid": 1005
  },
  {
    "id": 19800,
    "name": "Salem P. L.",
    "address": "821 E State Street",
    "city": "Salem",
    "state": "OH",
    "zip": 44460,
    "seo": "",
    "hub": "CLE",
    "routeid": 4002
  },
  {
    "id": 15000,
    "name": "Salem Township P. L.",
    "address": "535 West Pike St",
    "city": "Morrow",
    "state": "OH",
    "zip": 45152,
    "seo": "",
    "hub": "CVG",
    "routeid": 1008
  },
  {
    "id": 19900,
    "name": "Sandusky Library",
    "address": "114 W Adams St",
    "city": "Sandusky",
    "state": "OH",
    "zip": 44870,
    "seo": "",
    "hub": "CLE",
    "routeid": 4010
  },
  {
    "id": 9097,
    "name": "Sardinia Library",
    "address": "13309 Purdy Rd.",
    "city": "Sardinia",
    "state": "OH",
    "zip": 45171,
    "seo": "BCS",
    "hub": "CVG",
    "routeid": 1006
  },
  {
    "id": 20807,
    "name": "Schiappa Branch",
    "address": "4141 Mall Drive",
    "city": "Steubenville",
    "state": "OH",
    "zip": 43952,
    "seo": "STS",
    "hub": "CLE",
    "routeid": "4003A"
  },
  {
    "id": 3504,
    "name": "Scio Branch Library",
    "address": "331 West Main St",
    "city": "Scio",
    "state": "OH",
    "zip": 43988,
    "seo": "PPS",
    "hub": "CLE",
    "routeid": 4004
  },
  {
    "id": 4700,
    "name": "Selover P. L.",
    "address": "31 St Rt 95",
    "city": "Chesterville",
    "state": "OH",
    "zip": 43317,
    "seo": "",
    "hub": "CMH",
    "routeid": 3017
  },
  {
    "id": 1400,
    "name": "Seneca East P. L.",
    "address": "14 N Main Street;  Box 572",
    "city": "Attica",
    "state": "OH",
    "zip": 44807,
    "seo": "ATT",
    "hub": "TOL",
    "routeid": 5004
  },
  {
    "id": 28002,
    "name": "SEO Service Center",
    "address": "40780 Marietta Rd",
    "city": "Caldwell",
    "state": "OH",
    "zip": 43724,
    "seo": "SEO",
    "hub": "CMH",
    "routeid": 3025
  },
  {
    "id": 13308,
    "name": "Shadyside Branch Library",
    "address": "4300 Central Ave.",
    "city": "Shadyside",
    "state": "OH",
    "zip": 43947,
    "seo": "MSH",
    "hub": "CMH",
    "routeid": 3006
  },
  {
    "id": 20000,
    "name": "Shaker Heights P. L.",
    "address": "16500 Van Aken Blvd",
    "city": "Shaker Hts",
    "state": "OH",
    "zip": 44120,
    "seo": "",
    "hub": "CLE",
    "routeid": "4014A"
  },
  {
    "id": 15808,
    "name": "Somerset Branch Library",
    "address": "117 West Main Street",
    "city": "Somerset",
    "state": "OH",
    "zip": 43783,
    "seo": "PSO",
    "hub": "CMH",
    "routeid": 3018
  },
  {
    "id": 4807,
    "name": "South Salem Branch Library",
    "address": "4297 Broadway St.",
    "city": "South Salem",
    "state": "OH",
    "zip": 45681,
    "seo": "CHS",
    "hub": "CMH",
    "routeid": 3010
  },
  {
    "id": 20500,
    "name": "St Clairsville P. L.",
    "address": "108 West Main Street",
    "city": "St Clairsville",
    "state": "OH",
    "zip": 43950,
    "seo": "STC",
    "hub": "CLE",
    "routeid": 4003
  },
  {
    "id": 20600,
    "name": "St Marys Community Library",
    "address": "140 South Chestnut Street",
    "city": "St Marys",
    "state": "OH",
    "zip": 45885,
    "seo": "SMA",
    "hub": "DAY",
    "routeid": 2002
  },
  {
    "id": 4305,
    "name": "St. Henry P. L.",
    "address": "200 E. Main St.; PO Box 320",
    "city": "St. Henry",
    "state": "OH",
    "zip": 45883,
    "seo": "MCS",
    "hub": "DAY",
    "routeid": 2001
  },
  {
    "id": 22504,
    "name": "Stallo Memorial Branch",
    "address": "196 E. 4th Street",
    "city": "Minster",
    "state": "OH",
    "zip": 45865,
    "seo": "",
    "hub": "DAY",
    "routeid": 2002
  },
  {
    "id": 3900,
    "name": "Stark County District Library",
    "address": "715 Market Avenue North",
    "city": "Canton",
    "state": "OH",
    "zip": 44702,
    "seo": "",
    "hub": "CLE",
    "routeid": "4004B"
  },
  {
    "id": 28000,
    "name": "State Library of Ohio SLO",
    "address": "274 E First Ave",
    "city": "Columbus",
    "state": "OH",
    "zip": 43201,
    "seo": "",
    "hub": "CMH",
    "routeid": 3020
  },
  {
    "id": 20800,
    "name": "Steubenville & Jefferson Co. P. L.",
    "address": "407 S 4th Street",
    "city": "Steubenville",
    "state": "OH",
    "zip": 43952,
    "seo": "STE",
    "hub": "CLE",
    "routeid": 4003
  },
  {
    "id": 20900,
    "name": "Stow-Munroe Falls P. L.",
    "address": "3512 Darrow Road",
    "city": "Stow",
    "state": "OH",
    "zip": 44224,
    "seo": "",
    "hub": "CLE",
    "routeid": 4017
  },
  {
    "id": 16304,
    "name": "Mary E. Babcock Library",
    "address": "320 North Main Street",
    "city": "Johnstown",
    "state": "OH",
    "zip": 43031,
    "seo": "LMB",
    "hub": "CMH",
    "routeid": 3005
  },
  {
    "id": 21100,
    "name": "Swanton P. L.",
    "address": "305 Chestnut Street",
    "city": "Swanton",
    "state": "OH",
    "zip": 43558,
    "seo": "",
    "hub": "TOL",
    "routeid": 5002
  },
  {
    "id": 23300,
    "name": "Sylvester Memorial Wellston P. L.",
    "address": "135 East Second St",
    "city": "Wellston",
    "state": "OH",
    "zip": 45692,
    "seo": "",
    "hub": "CVG",
    "routeid": 1007
  },
  {
    "id": 6200,
    "name": "Cuyahoga Falls P.L.",
    "address": "2015 Third Street",
    "city": "Cuyahoga",
    "state": "OH",
    "zip": 44221,
    "seo": "",
    "hub": "CLE",
    "routeid": 4017
  },
  {
    "id": 15809,
    "name": "Thornville Branch Library",
    "address": "99 E. Columbus St.",
    "city": "Thornville",
    "state": "OH",
    "zip": 43076,
    "seo": "PTH",
    "hub": "CMH",
    "routeid": 3018
  },
  {
    "id": 21300,
    "name": "Tiffin-Seneca P. L.",
    "address": "77 Jefferson Street",
    "city": "Tiffin",
    "state": "OH",
    "zip": 44883,
    "seo": "TIF",
    "hub": "TOL",
    "routeid": 5004
  },
  {
    "id": 20808,
    "name": "Tiltonsville Branch",
    "address": "702 Walden Ave",
    "city": "Tiltonsville",
    "state": "OH",
    "zip": 43963,
    "seo": "STL",
    "hub": "CLE",
    "routeid": 4003
  },
  {
    "id": 21400,
    "name": "Tipp City P. L.",
    "address": "11 E Main Street",
    "city": "Tipp City",
    "state": "OH",
    "zip": 45371,
    "seo": "TCP",
    "hub": "DAY",
    "routeid": 2002
  },
  {
    "id": 21500,
    "name": "Toledo Lucas County P. L.",
    "address": "325 Michigan St",
    "city": "Toledo",
    "state": "OH",
    "zip": 43604,
    "seo": "",
    "hub": "TOL",
    "routeid": 5001
  },
  {
    "id": 20809,
    "name": "Toronto Branch",
    "address": "607 Daniels Street",
    "city": "Toronto",
    "state": "OH",
    "zip": 43964,
    "seo": "STT",
    "hub": "CLE",
    "routeid": "4003B"
  },
  {
    "id": 16100,
    "name": "Tuscarawas Main Library",
    "address": "121 Fair Avenue NW",
    "city": "New Philadelphia",
    "state": "OH",
    "zip": 44663,
    "seo": "TCO",
    "hub": "CLE",
    "routeid": 4006
  },
  {
    "id": 21700,
    "name": "Twinsburg P. L.",
    "address": "10050 Ravenna Rd",
    "city": "Twinsburg",
    "state": "OH",
    "zip": 44087,
    "seo": "",
    "hub": "CLE",
    "routeid": 4005
  },
  {
    "id": 19200,
    "name": "Union Township P. L.",
    "address": "27 Main St",
    "city": "Ripley",
    "state": "OH",
    "zip": 45167,
    "seo": "UTP",
    "hub": "CVG",
    "routeid": 1006
  },
  {
    "id": 21900,
    "name": "Upper Sandusky Comm. Lib.",
    "address": "301 N Sandusky Ave",
    "city": "Upper Sandusky",
    "state": "OH",
    "zip": 43351,
    "seo": "USC",
    "hub": "TOL",
    "routeid": 5004
  },
  {
    "id": 13305,
    "name": "Victoria Read Branch",
    "address": "300 High St.; PO Box 214",
    "city": "Flushing",
    "state": "OH",
    "zip": 43977,
    "seo": "MVI",
    "hub": "CLE",
    "routeid": 4004
  },
  {
    "id": 22400,
    "name": "Wadsworth P. L.",
    "address": "132 Broad Street",
    "city": "Wadsworth",
    "state": "OH",
    "zip": 44281,
    "seo": "",
    "hub": "CLE",
    "routeid": "4007A"
  },
  {
    "id": 24105,
    "name": "Wakeman - (Huron County Community Library)",
    "address": "33 Pleasant St.",
    "city": "Wakeman",
    "state": "OH",
    "zip": 44889,
    "seo": "WIW",
    "hub": "CLE",
    "routeid": 4009
  },
  {
    "id": 2904,
    "name": "Walbridge Branch",
    "address": "108 North Main Street",
    "city": "Walbridge",
    "state": "OH",
    "zip": 43465,
    "seo": "WOW",
    "hub": "TOL",
    "routeid": 5005
  },
  {
    "id": 34264,
    "name": "Preble Shawnee Local Schools",
    "address": "5495 Somers Gratis Rd",
    "city": "Camden",
    "state": "OH",
    "zip": 45311,
    "seo": "PSS",
    "hub": "DAY",
    "routeid": 2005
  },
  {
    "id": 22600,
    "name": "Warren-Trumbull County P. L.",
    "address": "444 Mahoning Avenue NW",
    "city": "Warren",
    "state": "OH",
    "zip": 44483,
    "seo": "",
    "hub": "CLE",
    "routeid": "4001B"
  },
  {
    "id": 13100,
    "name": "Washington County P. L.",
    "address": "615 Fifth Street",
    "city": "Marietta",
    "state": "OH",
    "zip": 45750,
    "seo": "WCM",
    "hub": "CMH",
    "routeid": 3025
  },
  {
    "id": 4500,
    "name": "Washington-Centerville P.L.",
    "address": "111 W Spring Valley Rd",
    "city": "Centerville",
    "state": "OH",
    "zip": 45458,
    "seo": "",
    "hub": "DAY",
    "routeid": 2004
  },
  {
    "id": 22800,
    "name": "Wauseon P. L.",
    "address": "117 E Elm Street",
    "city": "Wauseon",
    "state": "OH",
    "zip": 43567,
    "seo": "WPL",
    "hub": "TOL",
    "routeid": 5002
  },
  {
    "id": 18300,
    "name": "Way P. L.",
    "address": "101 E. Indiana Avenue",
    "city": "Perrysburg",
    "state": "OH",
    "zip": 43551,
    "seo": "WAY",
    "hub": "TOL",
    "routeid": 5001
  },
  {
    "id": 24500,
    "name": "Wayne County P. L. (Wooster)",
    "address": "220 West Liberty Street",
    "city": "Wooster",
    "state": "OH",
    "zip": 44691,
    "seo": "",
    "hub": "CLE",
    "routeid": 4007
  },
  {
    "id": 23000,
    "name": "Wayne P. L.",
    "address": "137 E Main; P.O. Box 489",
    "city": "Wayne",
    "state": "OH",
    "zip": 43466,
    "seo": "WNE",
    "hub": "TOL",
    "routeid": 5004
  },
  {
    "id": 23400,
    "name": "Wellsville Carnegie P. L.",
    "address": "115 Ninth Street",
    "city": "Wellsville",
    "state": "OH",
    "zip": 43968,
    "seo": "",
    "hub": "CLE",
    "routeid": "4003C"
  },
  {
    "id": 12998,
    "name": "West Union P. L. [Adams Co.]",
    "address": "212 E. Sparks St.",
    "city": "West Union",
    "state": "OH",
    "zip": 45693,
    "seo": "ACW",
    "hub": "CVG",
    "routeid": 1007
  },
  {
    "id": 23900,
    "name": "Weston P. L.",
    "address": "13153 Main St;  PO Box 345",
    "city": "Weston",
    "state": "OH",
    "zip": 43569,
    "seo": "WES",
    "hub": "TOL",
    "routeid": 5003
  },
  {
    "id": 29010,
    "name": "Crossroads Branch (Guernsey Co)",
    "address": "63500 Byesville Rd",
    "city": "Cambridge",
    "state": "OH",
    "zip": 43725,
    "seo": "GCT",
    "hub": "CMH",
    "routeid": 3025
  },
  {
    "id": 24000,
    "name": "Wickliffe P. L.",
    "address": "1713 Lincoln Road",
    "city": "Wickliffe",
    "state": "OH",
    "zip": 44092,
    "seo": "",
    "hub": "CLE",
    "routeid": "4014C"
  },
  {
    "id": 24100,
    "name": "Huron County Community Library (Willard)",
    "address": "6 W Emerald St",
    "city": "Willard",
    "state": "OH",
    "zip": 44890,
    "seo": "WIL",
    "hub": "CLE",
    "routeid": 4008
  },
  {
    "id": 3200,
    "name": "Williams County P. L.",
    "address": "107 E High Street",
    "city": "Bryan",
    "state": "OH",
    "zip": 43506,
    "seo": "BBR",
    "hub": "TOL",
    "routeid": 5002
  },
  {
    "id": 24200,
    "name": "Willoughby-Eastlake P. L.",
    "address": "35150 Lakeshore Blvd.",
    "city": "Eastlake",
    "state": "OH",
    "zip": 44095,
    "seo": "",
    "hub": "CLE",
    "routeid": 4000
  },
  {
    "id": 24300,
    "name": "Wilmington P. L. of Clinton Co.",
    "address": "268 N South Street",
    "city": "Wilmington",
    "state": "OH",
    "zip": 45177,
    "seo": "",
    "hub": "CVG",
    "routeid": 1005
  },
  {
    "id": 13106,
    "name": "Lafayette Branch",
    "address": "478 Pike Street",
    "city": "Marietta",
    "state": "OH",
    "zip": 45750,
    "seo": "WCW",
    "hub": "CMH",
    "routeid": 3025
  },
  {
    "id": 2900,
    "name": "Wood County District P. L.",
    "address": "251 N. Main",
    "city": "Bowling Green",
    "state": "OH",
    "zip": 43402,
    "seo": "WOD",
    "hub": "TOL",
    "routeid": 5004
  },
  {
    "id": 19100,
    "name": "Richwood-North Union Public Library",
    "address": "4 E. Ottawa Street",
    "city": "Richwood",
    "state": "OH",
    "zip": 43344,
    "seo": "RNU",
    "hub": "CMH",
    "routeid": 3015
  },
  {
    "id": 8605,
    "name": "Woodville Branch",
    "address": "101 E. Main St.",
    "city": "Woodville",
    "state": "OH",
    "zip": 43469,
    "seo": "",
    "hub": "TOL",
    "routeid": 5005
  },
  {
    "id": 22300,
    "name": "Worch Memorial P. L.",
    "address": "790 S. Center St.",
    "city": "Versailles",
    "state": "OH",
    "zip": 45380,
    "seo": "",
    "hub": "DAY",
    "routeid": 2001
  },
  {
    "id": 17200,
    "name": "Wright Memorial P. L.",
    "address": "1776 Far Hills Ave",
    "city": "Dayton",
    "state": "OH",
    "zip": 45419,
    "seo": "",
    "hub": "DAY",
    "routeid": 2004
  },
  {
    "id": 37100,
    "name": "Danbury Local Schools",
    "address": "9451 E. Harbor Rd",
    "city": "Lakeside-Marblehead",
    "state": "OH",
    "zip": 43440,
    "seo": "",
    "hub": "TOL",
    "routeid": 5005
  },
  {
    "id": 4808,
    "name": "Northside Branch (Chillicothe &Ross PL)",
    "address": "550 Buckeye St.",
    "city": "Chillicothe",
    "state": "OH",
    "zip": 45601,
    "seo": "CHN",
    "hub": "CMH",
    "routeid": 3010
  },
  {
    "id": 14503,
    "name": "Berlin Public Library",
    "address": "4 East Main Street",
    "city": "Berlin Heights",
    "state": "OH",
    "zip": 44814,
    "seo": "",
    "hub": "CLE",
    "routeid": 4009
  },
  {
    "id": 13200,
    "name": "Marion Public Library",
    "address": "445 East Church Street",
    "city": "Marion",
    "state": "OH",
    "zip": 43302,
    "seo": "",
    "hub": "CMH",
    "routeid": 3015
  },
  {
    "id": 4804,
    "name": "Howard S. Young Library - Frankfort",
    "address": "167 W. Springfield St.",
    "city": "Frankfort",
    "state": "OH",
    "zip": 45628,
    "seo": "CHH",
    "hub": "CMH",
    "routeid": 3010
  },
  {
    "id": 14400,
    "name": "MidPointe Library System",
    "address": "125 South Broad Street",
    "city": "Middletown",
    "state": "OH",
    "zip": 45044,
    "seo": "",
    "hub": "DAY",
    "routeid": 2005
  },
  {
    "id": 29004,
    "name": "SWON Libraries",
    "address": "10250 Alliance Road Suite 112",
    "city": "Blue Ash",
    "state": "OH",
    "zip": 45242,
    "seo": "",
    "hub": "CVG",
    "routeid": 1010
  },
  {
    "id": 10300,
    "name": "Homer Public Library",
    "address": "385 South Street, NW",
    "city": "Homer",
    "state": "OH",
    "zip": 43027,
    "seo": "HMR",
    "hub": "CMH",
    "routeid": 3017
  },
  {
    "id": 23700,
    "name": "Westerville Public Library",
    "address": "126 S. State St.",
    "city": "Westerville",
    "state": "OH",
    "zip": 43081,
    "seo": "",
    "hub": "CMH",
    "routeid": 3020
  },
  {
    "id": 15604,
    "name": "Chauncey Public Library",
    "address": "29 Converse St",
    "city": "Chauncey",
    "state": "OH",
    "zip": 45719,
    "seo": "",
    "hub": "CMH",
    "routeid": 3009
  },
  {
    "id": 1200,
    "name": "Lakeside Junior High",
    "address": "4335 Park Avenue",
    "city": "Ashtabula",
    "state": "OH",
    "zip": 44004,
    "seo": "ADI",
    "hub": "CLE",
    "routeid": 4015
  },
  {
    "id": 1200,
    "name": "Lakeside High School",
    "address": "4335 Park Avenue",
    "city": "Ashtabula",
    "state": "OH",
    "zip": 44004,
    "seo": "ADK",
    "hub": "CLE",
    "routeid": 4015
  },
  {
    "id": 1200,
    "name": "Grand River Academy",
    "address": "4335 Park Avenue",
    "city": "Ashtabula",
    "state": "OH",
    "zip": 44004,
    "seo": "ADR",
    "hub": "CLE",
    "routeid": 4015
  },
  {
    "id": 12998,
    "name": "Adams County Outreach",
    "address": "212 E. Sparks St.",
    "city": "West Union",
    "state": "OH",
    "zip": 45693,
    "seo": "ACO",
    "hub": "CVG",
    "routeid": 1007
  },
  {
    "id": 1203,
    "name": "Ashtabula Co. Bookmobile",
    "address": "860 Sherman Street",
    "city": "Geneva",
    "state": "OH",
    "zip": 44041,
    "seo": "ADB",
    "hub": "CLE",
    "routeid": 4015
  },
  {
    "id": 1203,
    "name": "Geneva High School",
    "address": "860 Sherman Street",
    "city": "Geneva",
    "state": "OH",
    "zip": 44041,
    "seo": "ADH",
    "hub": "CLE",
    "routeid": 4015
  },
  {
    "id": 1203,
    "name": "Geneva Middle School",
    "address": "860 Sherman Street",
    "city": "Geneva",
    "state": "OH",
    "zip": 44041,
    "seo": "ADM",
    "hub": "CLE",
    "routeid": 4015
  },
  {
    "id": 700,
    "name": "Pymatuning Valley",
    "address": "142 W. Main St. POB 1210",
    "city": "Andover",
    "state": "OH",
    "zip": 44003,
    "seo": "ADP",
    "hub": "CLE",
    "routeid": 4012
  },
  {
    "id": 1000,
    "name": "Ashland Bookmobile",
    "address": "224 Claremont Avenue",
    "city": "Ashland",
    "state": "OH",
    "zip": 44805,
    "seo": "ASB",
    "hub": "CLE",
    "routeid": 4008
  },
  {
    "id": 3200,
    "name": "Edon Branch",
    "address": "107 E High Street",
    "city": "Bryan",
    "state": "OH",
    "zip": 43506,
    "seo": "BED",
    "hub": "TOL",
    "routeid": 5002
  },
  {
    "id": 3200,
    "name": "Edgerton Branch",
    "address": "107 E High Street",
    "city": "Bryan",
    "state": "OH",
    "zip": 43506,
    "seo": "BEG",
    "hub": "TOL",
    "routeid": 5002
  },
  {
    "id": 3200,
    "name": "Pioneer Branch",
    "address": "107 E High Street",
    "city": "Bryan",
    "state": "OH",
    "zip": 43506,
    "seo": "BPI",
    "hub": "TOL",
    "routeid": 5002
  },
  {
    "id": 3200,
    "name": "Stryker Branch",
    "address": "107 E High Street",
    "city": "Bryan",
    "state": "OH",
    "zip": 43506,
    "seo": "BST",
    "hub": "TOL",
    "routeid": 5002
  },
  {
    "id": 3200,
    "name": "West Unity Branch",
    "address": "107 E High Street",
    "city": "Bryan",
    "state": "OH",
    "zip": 43506,
    "seo": "BWU",
    "hub": "TOL",
    "routeid": 5002
  },
  {
    "id": 5900,
    "name": "Coshocton Bookmobile",
    "address": "655 Main Street",
    "city": "Coshocton",
    "state": "OH",
    "zip": 43812,
    "seo": "CBM",
    "hub": "CMH",
    "routeid": 3005
  },
  {
    "id": 4200,
    "name": "Carroll County Bookmobile",
    "address": "70 Second St NE",
    "city": "Carrollton",
    "state": "OH",
    "zip": 44615,
    "seo": "CCB",
    "hub": "CLE",
    "routeid": 4004
  },
  {
    "id": 4200,
    "name": "Malvern Branch",
    "address": "70 Second St NE",
    "city": "Carrollton",
    "state": "OH",
    "zip": 44615,
    "seo": "CCM",
    "hub": "CLE",
    "routeid": 4004
  },
  {
    "id": 4800,
    "name": "Mt. Logan Branch",
    "address": "Box 185, 140-146 S Paint Street",
    "city": "Chillicothe",
    "state": "OH",
    "zip": 45601,
    "seo": "CHL",
    "hub": "CMH",
    "routeid": 3010
  },
  {
    "id": 4800,
    "name": "CRCPL Special Services",
    "address": "Box 185, 140-146 S Paint Street",
    "city": "Chillicothe",
    "state": "OH",
    "zip": 45601,
    "seo": "CHV",
    "hub": "CMH",
    "routeid": 3010
  },
  {
    "id": 5900,
    "name": "West Lafayette Branch Library",
    "address": "655 Main Street",
    "city": "Coshocton",
    "state": "OH",
    "zip": 43812,
    "seo": "CWL",
    "hub": "CMH",
    "routeid": 3005
  },
  {
    "id": 6900,
    "name": "Hamler Branch Library",
    "address": "208 North East Avenue",
    "city": "Deshler",
    "state": "OH",
    "zip": 43516,
    "seo": "DEH",
    "hub": "TOL",
    "routeid": 5003
  },
  {
    "id": 6400,
    "name": "Johnson Memorial Library",
    "address": "320 Fort Street",
    "city": "Defiance",
    "state": "OH",
    "zip": 43512,
    "seo": "DJM",
    "hub": "TOL",
    "routeid": 5002
  },
  {
    "id": 6400,
    "name": "Serwood Branch Library",
    "address": "320 Fort Street",
    "city": "Defiance",
    "state": "OH",
    "zip": 43512,
    "seo": "DSB",
    "hub": "TOL",
    "routeid": 5002
  },
  {
    "id": 6400,
    "name": "Defiance Mall Branch",
    "address": "320 Fort Street",
    "city": "Defiance",
    "state": "OH",
    "zip": 43512,
    "seo": "DPX",
    "hub": "TOL",
    "routeid": 5002
  },
  {
    "id": 31578,
    "name": "Eaton Schools-East Elementary",
    "address": "506 B Aukerman St.",
    "city": "Eaton",
    "state": "OH",
    "zip": 45320,
    "seo": "ESE",
    "hub": "DAY",
    "routeid": 2005
  },
  {
    "id": 31578,
    "name": "Eaton High School",
    "address": "506 B Aukerman St.",
    "city": "Eaton",
    "state": "OH",
    "zip": 45320,
    "seo": "ESH",
    "hub": "DAY",
    "routeid": 2005
  },
  {
    "id": 31578,
    "name": "Eaton Middle School",
    "address": "506 B Aukerman St.",
    "city": "Eaton",
    "state": "OH",
    "zip": 45320,
    "seo": "ESM",
    "hub": "DAY",
    "routeid": 2005
  },
  {
    "id": 8100,
    "name": "Arlington Branch Library",
    "address": "206 Broadway",
    "city": "Findlay",
    "state": "OH",
    "zip": 45840,
    "seo": "FIA",
    "hub": "TOL",
    "routeid": 5003
  },
  {
    "id": 8100,
    "name": "Findlay-Hancock Co. Bookmobile",
    "address": "206 Broadway",
    "city": "Findlay",
    "state": "OH",
    "zip": 45840,
    "seo": "FIB",
    "hub": "TOL",
    "routeid": 5003
  },
  {
    "id": 22900,
    "name": "Eastern Branch Library [Beaver]",
    "address": "207 N Market Street",
    "city": "Waverly",
    "state": "OH",
    "zip": 45690,
    "seo": "GWE",
    "hub": "CVG",
    "routeid": 1007
  },
  {
    "id": 22900,
    "name": "Piketon Branch Library",
    "address": "207 N Market Street",
    "city": "Waverly",
    "state": "OH",
    "zip": 45690,
    "seo": "GWP",
    "hub": "CVG",
    "routeid": 1007
  },
  {
    "id": 22900,
    "name": "Western Branch Library [Lathem]",
    "address": "207 N Market Street",
    "city": "Waverly",
    "state": "OH",
    "zip": 45690,
    "seo": "GWW",
    "hub": "CVG",
    "routeid": 1007
  },
  {
    "id": 14600,
    "name": "Hiland School District",
    "address": "3102 Glen Dr",
    "city": "Millersburg",
    "state": "OH",
    "zip": 44654,
    "seo": "HBE",
    "hub": "CLE",
    "routeid": 4007
  },
  {
    "id": 14600,
    "name": "Holmes County Bookmobile",
    "address": "3102 Glen Dr",
    "city": "Millersburg",
    "state": "OH",
    "zip": 44654,
    "seo": "HBO",
    "hub": "CLE",
    "routeid": 4007
  },
  {
    "id": 15400,
    "name": "Ridgeway Branch",
    "address": "124 E Taylor St,  PO Box 318",
    "city": "Mt Victory",
    "state": "OH",
    "zip": 43340,
    "seo": "HRR",
    "hub": "TOL",
    "routeid": 5003
  },
  {
    "id": 14600,
    "name": "Holmes County Training Center",
    "address": "3102 Glen Dr",
    "city": "Millersburg",
    "state": "OH",
    "zip": 44654,
    "seo": "HTC",
    "hub": "CLE",
    "routeid": 4007
  },
  {
    "id": 14600,
    "name": "Each Branch Holmes Co. Library",
    "address": "3102 Glen Dr",
    "city": "Millersburg",
    "state": "OH",
    "zip": 44654,
    "seo": "HWC",
    "hub": "CLE",
    "routeid": 4007
  },
  {
    "id": 13900,
    "name": "Kate Love Simpson Bookmobile",
    "address": "358 E Main Street",
    "city": "McConnelsville",
    "state": "OH",
    "zip": 43756,
    "seo": "KLK",
    "hub": "CMH",
    "routeid": 3008
  },
  {
    "id": 16300,
    "name": "Licking County Bookmobile",
    "address": "101 West Main Street",
    "city": "Newark",
    "state": "OH",
    "zip": 43055,
    "seo": "LBO",
    "hub": "CMH",
    "routeid": 3020
  },
  {
    "id": 16300,
    "name": "Licking County Broad Street",
    "address": "101 West Main Street",
    "city": "Newark",
    "state": "OH",
    "zip": 43055,
    "seo": "LBR",
    "hub": "CMH",
    "routeid": 3020
  },
  {
    "id": 16300,
    "name": "Buckeye Lake Library",
    "address": "101 West Main Street",
    "city": "Newark",
    "state": "OH",
    "zip": 43055,
    "seo": "LBU",
    "hub": "CMH",
    "routeid": 3020
  },
  {
    "id": 16300,
    "name": "Main Drive-up Window-Licking Co. Library",
    "address": "101 West Main Street",
    "city": "Newark",
    "state": "OH",
    "zip": 43055,
    "seo": "LDU",
    "hub": "CMH",
    "routeid": 3020
  },
  {
    "id": 16300,
    "name": "Hebron Library",
    "address": "101 West Main Street",
    "city": "Newark",
    "state": "OH",
    "zip": 43055,
    "seo": "LHE",
    "hub": "CMH",
    "routeid": 3020
  },
  {
    "id": 16300,
    "name": "Emerson R. Miller Library",
    "address": "101 West Main Street",
    "city": "Newark",
    "state": "OH",
    "zip": 43055,
    "seo": "LMI",
    "hub": "CMH",
    "routeid": 3020
  },
  {
    "id": 2100,
    "name": "DeGraff Branch Library",
    "address": "220 N. Main St",
    "city": "Bellefontaine",
    "state": "OH",
    "zip": 43311,
    "seo": "LOD",
    "hub": "DAY",
    "routeid": 2006
  },
  {
    "id": 2100,
    "name": "Lakeview Branch",
    "address": "220 N. Main St",
    "city": "Bellefontaine",
    "state": "OH",
    "zip": 43311,
    "seo": "LOL",
    "hub": "DAY",
    "routeid": 2006
  },
  {
    "id": 2100,
    "name": "West Mansfield Branch",
    "address": "220 N. Main St",
    "city": "Bellefontaine",
    "state": "OH",
    "zip": 43311,
    "seo": "LOM",
    "hub": "DAY",
    "routeid": 2006
  },
  {
    "id": 2100,
    "name": "Rushsylvania Branch Library",
    "address": "220 N. Main St",
    "city": "Bellefontaine",
    "state": "OH",
    "zip": 43311,
    "seo": "LOR",
    "hub": "DAY",
    "routeid": 2006
  },
  {
    "id": 2100,
    "name": "West Liberty Branch Library",
    "address": "220 N. Main St",
    "city": "Bellefontaine",
    "state": "OH",
    "zip": 43311,
    "seo": "LOW",
    "hub": "DAY",
    "routeid": 2006
  },
  {
    "id": 13300,
    "name": "Belmont Co. Bookmobile",
    "address": "20 James Wright Place",
    "city": "Martins Ferry",
    "state": "OH",
    "zip": 43935,
    "seo": "MBK",
    "hub": "CLE",
    "routeid": 4003
  },
  {
    "id": 15500,
    "name": "Florida Branch Library",
    "address": "310 W  Clinton Street",
    "city": "Napoleon",
    "state": "OH",
    "zip": 43545,
    "seo": "NAF",
    "hub": "TOL",
    "routeid": 5002
  },
  {
    "id": 15500,
    "name": "McClure Branch",
    "address": "310 W  Clinton Street",
    "city": "Napoleon",
    "state": "OH",
    "zip": 43545,
    "seo": "NAM",
    "hub": "TOL",
    "routeid": 5002
  },
  {
    "id": 18800,
    "name": "Erie Islands Branch",
    "address": "310 Madison Street",
    "city": "Port Clinton",
    "state": "OH",
    "zip": 43452,
    "seo": "PCE",
    "hub": "TOL",
    "routeid": 5005
  },
  {
    "id": 18000,
    "name": "Luckey Branch",
    "address": "375 E Front St.  PO Box 809",
    "city": "Pemberville",
    "state": "OH",
    "zip": 43450,
    "seo": "PEL",
    "hub": "TOL",
    "routeid": 5004
  },
  {
    "id": 18000,
    "name": "Stony Ridge Branch",
    "address": "375 E Front St.  PO Box 809",
    "city": "Pemberville",
    "state": "OH",
    "zip": 43450,
    "seo": "PES",
    "hub": "TOL",
    "routeid": 5004
  },
  {
    "id": 7500,
    "name": "West Alexandria Branch Library",
    "address": "450 South Barron Street",
    "city": "Eaton",
    "state": "OH",
    "zip": 45320,
    "seo": "PRA",
    "hub": "DAY",
    "routeid": 2005
  },
  {
    "id": 7500,
    "name": "Camden Branch Library",
    "address": "450 South Barron Street",
    "city": "Eaton",
    "state": "OH",
    "zip": 45320,
    "seo": "PRC",
    "hub": "DAY",
    "routeid": 2005
  },
  {
    "id": 7500,
    "name": "Eaton Branch Library",
    "address": "450 South Barron Street",
    "city": "Eaton",
    "state": "OH",
    "zip": 45320,
    "seo": "PRE",
    "hub": "DAY",
    "routeid": 2005
  },
  {
    "id": 7500,
    "name": "West Elkton Branch",
    "address": "450 South Barron Street",
    "city": "Eaton",
    "state": "OH",
    "zip": 45320,
    "seo": "PRK",
    "hub": "DAY",
    "routeid": 2005
  },
  {
    "id": 7500,
    "name": "Eldorado Branch",
    "address": "450 South Barron Street",
    "city": "Eaton",
    "state": "OH",
    "zip": 45320,
    "seo": "PRL",
    "hub": "DAY",
    "routeid": 2005
  },
  {
    "id": 7500,
    "name": "West Manchester Branch",
    "address": "450 South Barron Street",
    "city": "Eaton",
    "state": "OH",
    "zip": 45320,
    "seo": "PRM",
    "hub": "DAY",
    "routeid": 2005
  },
  {
    "id": 7500,
    "name": "New Paris Branch",
    "address": "450 South Barron Street",
    "city": "Eaton",
    "state": "OH",
    "zip": 45320,
    "seo": "PRP",
    "hub": "DAY",
    "routeid": 2005
  },
  {
    "id": 7500,
    "name": "Preble County Room",
    "address": "450 South Barron Street",
    "city": "Eaton",
    "state": "OH",
    "zip": 45320,
    "seo": "PRR",
    "hub": "DAY",
    "routeid": 2005
  },
  {
    "id": 34264,
    "name": "Preble Shawnee Schools-Camden",
    "address": "5495 Somers Gratis Rd",
    "city": "Camden",
    "state": "OH",
    "zip": 45311,
    "seo": "PSC",
    "hub": "DAY",
    "routeid": 2005
  },
  {
    "id": 34264,
    "name": "Preble Shawnee Schools-Jr. High",
    "address": "5495 Somers Gratis Rd",
    "city": "Camden",
    "state": "OH",
    "zip": 45311,
    "seo": "PSJ",
    "hub": "DAY",
    "routeid": 2005
  },
  {
    "id": 34264,
    "name": "Preble Shawnee Schools-West Elkton",
    "address": "5495 Somers Gratis Rd",
    "city": "Camden",
    "state": "OH",
    "zip": 45311,
    "seo": "PSW",
    "hub": "DAY",
    "routeid": 2005
  },
  {
    "id": 17600,
    "name": "Continental",
    "address": "136 Putnam Parkway",
    "city": "Ottawa",
    "state": "OH",
    "zip": 45875,
    "seo": "PTC",
    "hub": "TOL",
    "routeid": 5003
  },
  {
    "id": 17600,
    "name": "Fort Jennings",
    "address": "136 Putnam Parkway",
    "city": "Ottawa",
    "state": "OH",
    "zip": 45875,
    "seo": "PTF",
    "hub": "TOL",
    "routeid": 5003
  },
  {
    "id": 17600,
    "name": "Columbus Grove",
    "address": "136 Putnam Parkway",
    "city": "Ottawa",
    "state": "OH",
    "zip": 45875,
    "seo": "PTG",
    "hub": "TOL",
    "routeid": 5003
  },
  {
    "id": 17600,
    "name": "Kalida",
    "address": "136 Putnam Parkway",
    "city": "Ottawa",
    "state": "OH",
    "zip": 45875,
    "seo": "PTK",
    "hub": "TOL",
    "routeid": 5003
  },
  {
    "id": 17600,
    "name": "Leipsic",
    "address": "136 Putnam Parkway",
    "city": "Ottawa",
    "state": "OH",
    "zip": 45875,
    "seo": "PTL",
    "hub": "TOL",
    "routeid": 5003
  },
  {
    "id": 17600,
    "name": "Ottoville",
    "address": "136 Putnam Parkway",
    "city": "Ottawa",
    "state": "OH",
    "zip": 45875,
    "seo": "PTO",
    "hub": "TOL",
    "routeid": 5003
  },
  {
    "id": 17600,
    "name": "Pandora",
    "address": "136 Putnam Parkway",
    "city": "Ottawa",
    "state": "OH",
    "zip": 45875,
    "seo": "PTP",
    "hub": "TOL",
    "routeid": 5003
  },
  {
    "id": 20800,
    "name": "Steubenville Bookmobile",
    "address": "407 S 4th Street",
    "city": "Steubenville",
    "state": "OH",
    "zip": 43952,
    "seo": "STK",
    "hub": "CLE",
    "routeid": 4003
  },
  {
    "id": 16100,
    "name": "Tuscarawas Co Mobile Services",
    "address": "121 Fair Avenue NW",
    "city": "New Philadelphia",
    "state": "OH",
    "zip": 44663,
    "seo": "TBO",
    "hub": "CLE",
    "routeid": 4006
  },
  {
    "id": 16100,
    "name": "Tuscarawas Main-DRIVE UP",
    "address": "121 Fair Avenue NW",
    "city": "New Philadelphia",
    "state": "OH",
    "zip": 44663,
    "seo": "TDU",
    "hub": "CLE",
    "routeid": 4006
  },
  {
    "id": 16100,
    "name": "Strasburg Branch Library",
    "address": "121 Fair Avenue NW",
    "city": "New Philadelphia",
    "state": "OH",
    "zip": 44663,
    "seo": "TEO",
    "hub": "CLE",
    "routeid": 4006
  },
  {
    "id": 16100,
    "name": "Tuscarawas County Outreach",
    "address": "121 Fair Avenue NW",
    "city": "New Philadelphia",
    "state": "OH",
    "zip": 44663,
    "seo": "TOR",
    "hub": "CLE",
    "routeid": 4006
  },
  {
    "id": 16100,
    "name": "Sugarcreek Branch Library",
    "address": "121 Fair Avenue NW",
    "city": "New Philadelphia",
    "state": "OH",
    "zip": 44663,
    "seo": "TSO",
    "hub": "CLE",
    "routeid": 4006
  },
  {
    "id": 16100,
    "name": "Tuscarawas Branch Library",
    "address": "121 Fair Avenue NW",
    "city": "New Philadelphia",
    "state": "OH",
    "zip": 44663,
    "seo": "TTO",
    "hub": "CLE",
    "routeid": 4006
  },
  {
    "id": 16100,
    "name": "Bolivar Branch Library",
    "address": "121 Fair Avenue NW",
    "city": "New Philadelphia",
    "state": "OH",
    "zip": 44663,
    "seo": "TVO",
    "hub": "CLE",
    "routeid": 4006
  },
  {
    "id": 19200,
    "name": "Russellville Branch Library",
    "address": "27 Main St",
    "city": "Ripley",
    "state": "OH",
    "zip": 45167,
    "seo": "UTR",
    "hub": "CVG",
    "routeid": 1006
  },
  {
    "id": 2900,
    "name": "Wood County Bookmobile",
    "address": "251 N. Main",
    "city": "Bowling Green",
    "state": "OH",
    "zip": 43402,
    "seo": "WOK",
    "hub": "TOL",
    "routeid": 5004
  },
  {
    "id": 1200,
    "name": "Edgewood High School",
    "address": "4335 Park Avenue",
    "city": "Ashtabula",
    "state": "OH",
    "zip": 44004,
    "seo": "ADE",
    "hub": "CLE",
    "routeid": 4015
  },
  {
    "id": 16100,
    "name": "Tuscarawas Main Library Lockers",
    "address": "121 Fair Ave NW",
    "city": "New Philadelphia",
    "state": "OH",
    "zip": 44663,
    "seo": "TCL",
    "hub": "CLE",
    "routeid": 4006
  },
  {
    "id": 16300,
    "name": "Licking County Legacy Park",
    "address": "101 West Main Street",
    "city": "Newark",
    "state": "OH",
    "zip": 43055,
    "seo": "LLP",
    "hub": "CMH",
    "routeid": 3020
  },
  {
    "id": 21600,
    "name": "Troy-Miami County Public Library",
    "address": "419 W. Main St.",
    "city": "Troy",
    "state": "OH",
    "zip": 45373,
    "seo": "",
    "hub": "DAY",
    "routeid": 2008
  },
  {
    "id": 12300,
    "name": "Logan-Hocking County District Library",
    "address": "230 E. Main St.",
    "city": "Logan",
    "state": "OH",
    "zip": 43139,
    "seo": "",
    "hub": "CMH",
    "routeid": ""
  },
  {
    "id": 10100,
    "name": "Rocky Fork Library",
    "address": "10 Willettsville Pike",
    "city": "Hillsboro",
    "state": "OH",
    "zip": 45133,
    "seo": "HRF",
    "hub": "CVG",
    "routeid": 1005
  }
]
